{"type":"FeatureCollection","features":[{"type":"Feature","properties":{},"geometry":{"type":"MultiPolygon","coordinates":[[[[-59.57159571595716,-80.04051996963545],[-59.86679866798667,-80.54998010923839],[-60.158401584015834,-81.0002006977247],[-62.253622536225365,-80.86310345085481],[-64.48924489244892,-80.92234300197143],[-65.7420574205742,-80.58890895711502],[-65.7420574205742,-80.54998010923839],[-66.28926289262893,-80.25547491225862],[-64.03924039240393,-80.29440376013525],[-61.88281882818828,-80.3925721591285],[-61.13761137611375,-79.98128041851884],[-60.60840608406083,-79.62922822902577],[-59.57159571595716,-80.04051996963545]]],[[[-159.20979209792097,-79.49720865796587],[-161.12861128611286,-79.63430590483577],[-162.4390243902439,-79.2822537153427],[-163.0258302583026,-78.92850896724632],[-163.06543065430654,-78.8692694161297],[-163.71343713437133,-78.59507492238991],[-163.10503105031052,-78.22271202965688],[-161.2438124381244,-78.38011997976675],[-160.24660246602465,-78.69324332138316],[-159.48339483394835,-79.04698806947955],[-159.20979209792097,-79.49720865796587]]],[[[-45.15345153451534,-78.04668593491034],[-43.92223922239222,-78.47828837876],[-43.490234902349016,-79.0859169173562],[-43.371433714337144,-79.51582680260253],[-43.33183331833317,-80.02528694220547],[-44.879848798487984,-80.34010284242521],[-46.5070650706507,-80.59398663292502],[-48.38628386283861,-80.82925227878816],[-50.48150481504814,-81.02558907677468],[-52.85032850328503,-80.96634952565806],[-54.164341643416435,-80.63291548080166],[-53.987939879398795,-80.22162374019197],[-51.853118531185316,-79.94742924645219],[-50.99270992709927,-79.61399520159578],[-50.36630366303663,-79.18408531634945],[-49.91269912699127,-78.8117224236164],[-49.30789307893079,-78.45797767552001],[-48.659886598865995,-78.04668593491034],[-48.15228152281523,-78.04668593491034],[-46.66186661866618,-77.83173099228718],[-45.15345153451534,-78.04668593491034]]],[[[-121.21141211412115,-73.50047352636057],[-119.9189991899919,-73.65788147647044],[-118.72378723787239,-73.4818553817239],[-119.29259292592926,-73.83390757121697],[-120.23220232202323,-74.0894839203201],[-121.62181621816218,-74.0099336659635],[-122.62262622626227,-73.65788147647044],[-122.40662406624065,-73.32444743161403],[-121.21141211412115,-73.50047352636057]]],[[[-125.56025560255603,-73.4818553817239],[-124.03024030240303,-73.8728364190936],[-124.62064620646206,-73.83390757121697],[-125.91305913059131,-73.7357391722237],[-127.28467284672845,-73.46154467848392],[-126.55746557465574,-73.24658973586075],[-125.56025560255603,-73.4818553817239]]],[[[-98.98118981189812,-71.93316425967512],[-97.88317883178831,-72.07026150654501],[-96.78876788767887,-71.9534749629151],[-96.2019620196202,-72.52048209503133],[-96.98316983169832,-72.44262439927805],[-98.19638196381963,-72.4815532471547],[-99.43119431194312,-72.44262439927805],[-100.78480784807847,-72.50186395039466],[-101.80361803618035,-72.30552715240816],[-102.32922329223292,-71.89423541179848],[-101.70281702817027,-71.71820931705196],[-100.43200432004319,-71.85530656392184],[-98.98118981189812,-71.93316425967512]]],[[[-68.45288452884529,-70.95655794555255],[-68.3340833408334,-71.40677853403886],[-68.51048510485104,-71.79775957140856],[-68.7840878408784,-72.1701224641416],[-69.95769957699576,-72.3072197110115],[-71.07731077310773,-72.503556508998],[-72.38772387723877,-72.48493836436135],[-71.89811898118981,-72.09226476838833],[-73.07533075330753,-72.22936201525822],[-74.19134191341914,-72.36645926212812],[-74.95454954549545,-72.07195406514835],[-75.01215012150121,-71.66066232453866],[-73.91413914139142,-71.26968128716896],[-73.23013230132301,-71.15120218493573],[-72.07452074520745,-71.19013103281236],[-71.77931779317792,-70.68067089320942],[-71.72171721717217,-70.31000055907973],[-71.74331743317433,-69.50603522249702],[-71.17451174511744,-69.03550393077072],[-70.25290252902529,-68.87809598066085],[-69.72369723697237,-69.25045887339388],[-69.48969489694896,-69.62282176612692],[-69.05769057690577,-70.07473491321657],[-68.72648726487265,-70.50464479846289],[-68.45288452884529,-70.95655794555255]]],[[[-180,-84.71367427343513],[-176.86076860768608,-84.33454114628876],[-175.83115831158312,-84.11789364506227],[-168.99828998289982,-84.11789364506227],[-158.07218072180723,-85.37377212873461],[-143.10683106831067,-85.04033808387821],[-153.58653586535866,-83.68798375981594],[-154.5261452614526,-81.76862230363743],[-150.6489064890649,-81.33701985978777],[-148.0640806408064,-79.65292404947242],[-155.9769597695977,-78.69155076277984],[-156.9741697416974,-77.30026759084092],[-150.00090000900008,-77.18348104721102],[-146.49446494464945,-75.73295832415548],[-141.6380163801638,-75.08640093768265],[-135.21555215552155,-74.30274630433993],[-129.55269552695526,-74.4601542544498],[-122.56142561425614,-74.49908310232644],[-116.21456214562146,-74.24350675322331],[-112.29772297722977,-74.7140380449496],[-106.14886148861488,-75.12532978555929],[-100.11520115201152,-74.87144599505949],[-103.330033300333,-73.36168372088733],[-99.13599135991359,-72.91146313240102],[-93.67113671136711,-73.28382602513406],[-88.42228422284222,-73.00963153139428],[-82.66582665826658,-73.63587821462713],[-77.92457924579246,-73.42092327200396],[-72.8341283412834,-73.40061256876398],[-67.36927369273693,-72.47986068855135],[-68.22968229682296,-70.4623308333796],[-67.58527585275853,-68.54127681859777],[-66.70326703267033,-66.58298651454263],[-63.628836288362876,-64.89719814562395],[-59.88839888398884,-63.95613556217135],[-57.595175951759515,-63.85796716317809],[-61.2960129601296,-64.54514595613088],[-62.120421204212036,-66.1903129185696],[-65.5080550805508,-67.58159609050851],[-63.196831968319685,-69.22676305294723],[-61.51201512015119,-71.08857751661245],[-60.8280082800828,-73.69511776574375],[-64.35244352443524,-75.26242703242919],[-70.60210602106021,-76.63509205973145],[-76.92736927369273,-77.10562335145774],[-76.49536495364953,-78.12285107206029],[-76.6321663216632,-79.88649713673223],[-68.19008190081901,-81.31840171515111],[-58.71118711187111,-82.84678213395992],[-51.54351543515435,-82.00388794950058],[-42.16182161821618,-81.65014320140419],[-32.30852308523086,-80.76832016906822],[-29.684096840968408,-79.2602504534994],[-35.77535775357754,-78.33949857328678],[-29.78489784897849,-77.06500194497778],[-23.927639276392767,-76.24241846375841],[-17.523175231752305,-75.12532978555929],[-16.11196111961118,-73.4598521198806],[-11.5111151111511,-72.00932939682505],[-7.4178741787417835,-71.69620605520863],[-4.3434434344343344,-71.46094040934548],[0.8694086940869568,-71.30522501783894],[6.273062730627316,-70.4623308333796],[10.251102511025124,-70.48094897801624],[14.736747367473669,-70.03072838952994],[19.258392583925854,-69.89363114266004],[23.664836648366503,-70.52157038449621],[29.151291512915122,-70.20675448427646],[33.302133021330235,-68.83578201557754],[37.20097200972012,-69.16921606043394],[40.919809198092,-68.93395041457079],[45.718657186571875,-67.81686173637166],[49.93069930699309,-67.11106479878222],[53.61353613536136,-65.89580772158983],[57.256772567725676,-66.67946235493255],[61.429214292142916,-67.95395898324156],[65.97245972459726,-67.7390040406184],[69.67329673296734,-69.22676305294723],[69.0648906489065,-70.67728577600276],[69.86769867698678,-72.26490574592819],[73.08253082530825,-70.7162146238794],[76.62496624966252,-69.61943664892026],[80.0918009180092,-68.07074552687146],[83.7746377463775,-67.30740159676873],[87.98667986679868,-66.21062362180959],[91.59031590315902,-67.11106479878222],[95.78075780757808,-67.385259292522],[100.38520385203856,-66.9147280007957],[104.2408424084241,-65.97535797594644],[109.15849158491585,-66.83687030504242],[113.60453604536048,-65.87718957695319],[117.38457384573849,-66.9147280007957],[122.32022320223206,-66.56267581130264],[127.00027000270006,-66.56267581130264],[131.7991179911799,-66.38664971655612],[135.07155071550716,-65.30848988623362],[137.46197461974623,-66.95534940727568],[143.06363063630636,-66.79794145716579],[146.64566645666457,-67.89471943212493],[152.50292502925032,-68.87471086345417],[156.81216812168122,-69.3841710030571],[161.57141571415713,-70.57911737700951],[167.30987309873098,-70.83469372611265],[171.089910899109,-72.08887965118166],[167.9758797587976,-73.81359686797698],[164.23544235442358,-75.45876383041569],[164.0590405904059,-77.4576755409508],[165.19305193051935,-78.90819826400633],[160.31860318603185,-80.57367592968504],[163.70623706237063,-82.39486898687028],[172.28512285122855,-84.04172850791232],[-180,-84.71367427343513],[-180,-84.71367427343513]]],[[[-67.75087750877509,-53.84986814167591],[-66.45126451264512,-54.45072644585878],[-65.05085050850508,-54.699532560548576],[-65.50085500855008,-55.20052990713485],[-66.45126451264512,-55.24961410663148],[-66.95886958869588,-54.897561917138425],[-67.290072900729,-55.30208342333478],[-68.14688146881468,-55.611821647744534],[-69.23049230492305,-55.49842022132129],[-69.95769957699576,-55.19883734853153],[-71.00531005310053,-55.053277308644965],[-72.26532265322653,-54.49473296954541],[-73.28413284132841,-53.95819189228916],[-74.66294662946629,-52.837718096883364],[-73.83853838538386,-53.04759536369654],[-72.43452434524345,-53.71615601201268],[-71.10611106111061,-54.074978435919064],[-70.59130591305913,-53.61629505441609],[-70.26730267302672,-52.93080882006663],[-69.34569345693457,-52.517824520853615],[-68.63288632886328,-52.63630362308686],[-68.25128251282513,-53.100064680399825],[-67.75087750877509,-53.84986814167591]]],[[[-58.549185491854914,-51.09946041126139],[-57.749977499775,-51.54968099974771],[-58.048780487804876,-51.900040630637434],[-59.39879398793987,-52.1996235034272],[-59.84879848798488,-51.84926387253747],[-60.698406984069834,-52.29948446102379],[-61.19881198811987,-51.84926387253747],[-60,-51.25009812695794],[-59.15039150391503,-51.50059680025108],[-58.549185491854914,-51.09946041126139]]],[[[70.28170281702819,-49.70986979792581],[68.74448744487447,-49.774187024852424],[68.71928719287195,-49.24272362340618],[68.8668886688867,-48.82973932419316],[68.93528935289353,-48.62493973318999],[69.57969579695799,-48.939755633409746],[70.52650526505266,-49.065004970056314],[70.55890558905591,-49.2545715336295],[70.28170281702819,-49.70986979792581]]],[[[145.39645396453966,-40.791778516969444],[146.36486364863651,-41.13706047204917],[146.90846908469086,-40.99996322517928],[147.68967689676896,-40.80870410300276],[148.2872828728287,-40.87471388853271],[148.35928359283594,-42.062890028071784],[148.01728017280175,-42.40647942454818],[147.9128791287913,-43.21213731973422],[147.5636756367564,-42.93794282599443],[146.86886868868692,-43.63527697056722],[146.6636666366664,-43.5811150952606],[146.04806048060482,-43.54895648179729],[145.43245432454324,-42.69421438711463],[145.29565295652958,-42.03411653181514],[144.71964719647195,-41.16244885109916],[144.7448474484745,-40.70376546959618],[145.39645396453966,-40.791778516969444]]],[[[173.01953019530197,-40.91872041221934],[173.24633246332462,-41.33170471143236],[173.9591395913959,-40.927183205236005],[174.24714247142475,-41.348630297465675],[174.24714247142475,-41.770077389695345],[173.87633876338765,-42.23383844700832],[173.22113221132213,-42.97010143945774],[172.709927099271,-43.37293038705076],[173.0807308073081,-43.853617030397054],[172.31032310323104,-43.86546494062038],[171.45351453514536,-44.242905509163414],[171.18351183511834,-44.897925688652904],[170.61830618306186,-45.908383174842115],[169.82989829898298,-46.35521864612176],[169.3330933309333,-46.64126105008487],[168.4114841148412,-46.619257788241555],[167.76347763477634,-46.290901419195144],[166.67626676266764,-46.2198139578552],[166.51066510665106,-45.85252874093216],[167.04707047070474,-45.11118807267274],[168.30348303483038,-44.124426406930176],[168.9478894788948,-43.93655240196032],[169.66789667896683,-43.555726716210614],[170.5247052470525,-43.03103354917769],[171.12591125911263,-42.5131106165581],[171.5687156871569,-41.76669227248868],[171.95031950319503,-41.514501040592215],[172.0979209792098,-40.955956701492646],[172.79992799928,-40.49388820278301],[173.01953019530197,-40.91872041221934]]],[[[174.61074610746107,-36.15586050244306],[175.33795337953381,-37.208631953715575],[175.35595355953564,-36.526530836572775],[175.809558095581,-36.79903277170923],[175.95715957159575,-37.55560646739864],[176.7635676356764,-37.88057771923838],[177.44037440374404,-37.961820532198324],[178.00918009180094,-37.57930228784529],[178.5167851678517,-37.696088831475194],[178.27558275582754,-38.58298953962117],[177.969579695797,-39.166922257770715],[177.20637206372066,-39.14661155453073],[176.939969399694,-39.44957954452716],[177.03357033570336,-39.87948942977349],[176.8859688596886,-40.06567087614001],[176.50796507965083,-40.605597070602926],[176.01116011160116,-41.289390746349056],[175.2407524075241,-41.68883457673541],[175.0679506795068,-41.42648799321895],[174.65034650346507,-41.282620511935725],[175.22635226352264,-40.46003703071637],[174.8987489874899,-39.90826292603013],[173.82233822338225,-39.50881909564378],[173.8511385113851,-39.14661155453073],[174.57474574745748,-38.79794448224433],[174.74394743947443,-38.02783031772827],[174.69714697146975,-37.38127293125544],[174.29034290342906,-36.71101972433596],[174.31914319143192,-36.53499362958944],[173.84033840338407,-36.12200933037642],[173.05553055530555,-35.23680118083378],[172.63432634326347,-34.529311684641],[173.00873008730088,-34.45145398888773],[173.55233552335523,-35.00661321078063],[174.329943299433,-35.26557467709043],[174.61074610746107,-36.15586050244306]]],[[[167.1190711907119,-22.160093411490664],[166.74106741067413,-22.400436733163808],[166.19026190261906,-22.129627356630692],[165.4738547385474,-21.679406768144375],[164.82944829448297,-21.149635925301453],[164.16704167041672,-20.445531546315337],[164.03024030240306,-20.10532726704561],[164.45864458644587,-20.120560294475595],[165.02025020250204,-20.460764573745323],[165.45945459454595,-20.799276294411726],[165.779857798578,-21.08024102256485],[166.6006660066601,-21.69971747138436],[167.1190711907119,-22.160093411490664]]],[[[178.37278372783732,-17.3396865092011],[178.71838718387187,-17.62911403037087],[178.5527855278553,-18.15042208019713],[177.93357933579335,-18.287519327067017],[177.38277382773828,-18.163962549023793],[177.28557285572856,-17.72389731215746],[177.67077670776712,-17.380307915681072],[178.12438124381248,-17.505557252327634],[178.37278372783732,-17.3396865092011]]],[[[-180,-16.55603187585838],[179.3627936279363,-16.801452873341518],[178.7255872558726,-17.011330140154683],[178.5959859598596,-16.638967247421647],[179.09639096390964,-16.434167656418467],[179.41319413194134,-16.37831322250851],[-180,-16.06688243949543],[-179.79479794797948,-16.02118335720546],[-179.9171991719917,-16.501870000551747],[-180,-16.55603187585838]]],[[[167.84627846278465,-16.466326269881776],[167.5150751507515,-16.598345840941676],[167.18027180271804,-16.159973162678682],[167.21627216272162,-15.892548903352221],[167.84627846278465,-16.466326269881776]]],[[[167.10827108271081,-14.934560733866306],[167.27027270272703,-15.74021862905235],[167.00027000270006,-15.614969292405775],[166.79146791467917,-15.669131167712408],[166.65106651066515,-15.393244115369285],[166.62946629466296,-14.626515068059888],[167.10827108271081,-14.934560733866306]]],[[[50.05670056700569,-13.55512547215072],[50.218702187021876,-14.758534639119787],[50.477904779047805,-15.225680813639414],[50.377103771037724,-15.706367456985703],[50.200702007020084,-16.000872653965473],[49.86229862298623,-15.41355481860927],[49.67149671496716,-15.709752574192365],[49.86229862298623,-16.45109324245179],[49.77589775897761,-16.8742328932848],[49.498694986949886,-17.106113421941274],[49.43389433894339,-17.95239272360729],[49.04149041490416,-19.118565601303047],[48.54828548285482,-20.496308304415294],[47.92907929079291,-22.391973940147153],[47.54747547475475,-23.78156455348273],[47.09747097470975,-24.940967196765158],[46.28386283862838,-25.17792540123164],[45.409054090540906,-25.60106505206464],[44.83304833048331,-25.34548870296151],[44.04104041040412,-24.988358837658453],[43.7638376383764,-24.46028055341887],[43.699036990369905,-23.573379845272896],[43.346233462334624,-22.776184743103514],[43.25263252632527,-22.05684733668741],[43.432634326343276,-21.33581737166797],[43.893438934389366,-21.163176394128115],[43.8970389703897,-20.829742349271697],[44.37584375843758,-20.0731686535823],[44.4658446584466,-19.435074060126126],[44.23184231842319,-18.96115765119316],[44.044640446404486,-18.33152585075365],[43.9618396183962,-17.410773970541044],[44.311043110431115,-16.85053707283815],[44.44784447844478,-16.21582759658864],[44.94464944649448,-16.178591307315344],[45.502655026550286,-15.973791716312164],[45.87345873458736,-15.792687945755645],[46.312663126631264,-15.780840035532322],[46.88146881468816,-15.210447786209429],[47.7058770587706,-14.594356454596578],[48.00468004680047,-14.091666549406966],[47.86787867878681,-13.663449222763973],[48.292682926829286,-13.783620883600548],[48.843488434884364,-13.089671856234418],[48.86508865088652,-12.487120993448215],[49.196291962919645,-12.040285522168574],[49.5418954189542,-12.470195407414906],[49.808298082980826,-12.895027616851237],[50.05670056700569,-13.55512547215072]]],[[[143.56043560435603,-13.763310180360563],[144.56484564845647,-14.17121680376357],[145.37485374853748,-14.985337491966277],[145.48645486454865,-16.285222499325258],[145.88965889658897,-16.906391506748108],[146.06246062460627,-18.280749092653693],[147.47007470074703,-19.480773142416098],[148.84888848888488,-20.391369671008718],[149.28809288092884,-21.261344793121367],[150.07650076500767,-22.12285712221736],[150.72810728107282,-22.402129291767146],[151.610116101161,-24.0760697504625],[152.8557285572856,-25.267631007208237],[153.1617316173162,-26.64198859311383],[153.5685356853569,-28.10943690220268],[153.33813338133382,-29.458406109058295],[153.08973089730898,-30.924161859543815],[152.44892448924492,-32.55071067734588],[151.3437134371344,-33.81674451263822],[150.71370713707137,-35.1741765125105],[150.07650076500767,-36.41989964456286],[149.99729997299977,-37.42527945494207],[148.30528305283053,-37.80949025789844],[146.92286922869232,-38.606685360067814],[145.490054900549,-38.59314489124116],[145.0328503285033,-37.895810746668374],[143.61083610836107,-38.809792392467656],[142.17802178021782,-38.379882507221325],[140.63720637206376,-38.01936752471161],[139.80559805598057,-36.64331738020268],[139.08199081990819,-35.73272085161006],[138.44838448384485,-35.126784871617204],[137.7175771757718,-35.07600811351724],[137.35397353973542,-34.707030337990865],[137.89037890378904,-33.6407184178917],[136.99756997569978,-33.75242728571161],[135.98955989559897,-34.88982666715072],[135.2407524075241,-33.94876408369812],[134.08514085140854,-32.848600991532315],[132.9907299072991,-32.01078448288297],[131.3275132751328,-31.49624666747004],[128.24228242282425,-31.948159814559688],[126.14706147061474,-32.21558407388614],[124.22104221042213,-32.96030985935223],[123.65943659436596,-33.889524532581504],[122.18342183421834,-34.00292595900475],[120.58140581405814,-33.93014593906147],[119.29979299793001,-34.509000981401016],[118.5041850418504,-34.74765174447083],[117.29457294572944,-35.02523135541728],[115.56295562955631,-34.387136761961116],[115.04815048150482,-33.623792831858374],[115.71415714157143,-33.25989273214199],[115.80055800558006,-32.20542872226615],[115.15975159751599,-30.600883166307405],[115.04095040950409,-29.461791226264964],[114.61614616146164,-28.515650967002365],[114.04734047340474,-27.334245061876622],[113.33813338133382,-26.117295426080908],[113.44253442534426,-25.621375755304626],[114.23454234542345,-26.298399196637433],[113.71973719737201,-24.998514189278445],[113.39213392133922,-24.384115416268926],[113.70533705337056,-23.55983937644624],[113.73773737737378,-22.47490931171042],[114.22374223742236,-22.51722327679372],[115.45855458554587,-21.49491788038118],[116.71136711367114,-20.701107895418474],[117.44217442174426,-20.74680697770843],[118.83538835388356,-20.26273521715548],[119.25299252992534,-19.952996992745724],[120.85500855008553,-19.68388017481594],[121.65421654216544,-18.705581302090025],[122.28782287822878,-17.798369890704066],[123.01143011430116,-16.405394160161833],[123.86103861038612,-17.06887713266798],[123.8178381783818,-16.110888963182063],[124.37944379443798,-15.56757765151248],[125.1678516785168,-14.680676943366507],[125.68625686256865,-14.23045635488019],[126.14346143461438,-14.096744225216966],[127.0650706507065,-13.817472055667182],[128.36108361083615,-14.868550948336363],[129.6210962109621,-14.970104464536277],[129.88749887498875,-13.61944269907734],[130.18270182701826,-13.108290000871065],[131.22311223112234,-12.184153003451797],[132.5767257672577,-12.114758100715179],[131.82431824318246,-11.273556474859163],[133.01953019530197,-11.376802549662429],[134.3947439474395,-12.041978080771898],[135.29835298352987,-12.248470230378402],[136.259562595626,-12.048748315185236],[136.9507695076951,-12.351716305181654],[136.30636306363067,-13.291086330030922],[136.0759607596076,-13.724381332483915],[135.4279542795428,-14.716220674036478],[136.29556295562958,-15.550652065479156],[137.58077580775807,-16.21582759658864],[138.5851858518585,-16.806530549151518],[139.26199261992622,-17.37184512266441],[140.8748087480875,-17.368460005457734],[141.27441274412746,-16.38846857412851],[141.70281702817027,-15.044577043082896],[141.63441634416347,-14.27107776136016],[141.65241652416523,-12.94411181634787],[141.68841688416887,-12.40757073909161],[142.1168211682117,-11.327718350165796],[142.51642516425164,-10.667620494866313],[142.86562865628656,-11.784709173065437],[143.1572315723157,-12.326327926131682],[143.59643596435967,-13.401102639247512],[143.56043560435603,-13.763310180360563]]],[[[162.1186211862119,-10.483131607103118],[162.39942399423995,-10.826721003579522],[161.70101701017012,-10.819950769166184],[161.31941319413193,-10.205551996156672],[161.91701917019174,-10.445895317829823],[162.1186211862119,-10.483131607103118]]],[[[120.71460714607144,-10.239403168223305],[120.29340293402936,-10.258021312859967],[118.96858968589686,-9.557302051080512],[119.90099900999013,-9.360965253093994],[120.42660426604266,-9.665625801693764],[120.77580775807758,-9.97028635029352],[120.71460714607144,-10.239403168223305]]],[[[160.85140851408516,-9.872117951300268],[160.4626046260463,-9.895813771746916],[159.8505985059851,-9.794260255546988],[159.6417964179642,-9.640237422643779],[159.70299702997033,-9.242486150860756],[160.36180361803622,-9.399894100970627],[160.68940689406895,-9.609771367783807],[160.85140851408516,-9.872117951300268]]],[[[161.67941679416793,-9.599616016163807],[161.52821528215281,-9.784104903927002],[160.78660786607867,-8.917514899021015],[160.58140581405814,-8.320041712044812],[160.91980919809197,-8.320041712044812],[161.27981279812798,-9.120621931420857],[161.67941679416793,-9.599616016163807]]],[[[124.43704437044374,-10.139542210626729],[123.58023580235806,-10.35957482905988],[123.46143461434616,-10.239403168223305],[123.55143551435515,-9.899198888953578],[123.97983979839802,-9.289877791754051],[124.969849698497,-8.892126519971029],[125.08505085050854,-8.656860874107878],[125.94545945459458,-8.431750579864726],[126.64386643866442,-8.397899407798079],[126.9570695706957,-8.272650071151517],[127.33507335073352,-8.397899407798079],[126.96786967869679,-8.668708784331201],[125.92745927459276,-9.105388903990857],[125.0886508865089,-9.393123866557303],[124.43704437044374,-10.139542210626729]]],[[[117.89937899378992,-8.094931417801646],[118.25938259382593,-8.362355677128107],[118.87858878588787,-8.281112864168179],[119.12699126991271,-8.70594507360451],[117.97137971379715,-8.907359547401015],[117.27657276572768,-9.041071677064252],[116.740167401674,-9.03260888404759],[117.08217082170825,-8.457138958914697],[117.63297632976332,-8.44867616589805],[117.89937899378992,-8.094931417801646]]],[[[122.90342903429035,-8.094931417801646],[122.7558275582756,-8.650090639694554],[121.25461254612549,-8.934440485054324],[119.92259922599226,-8.810883707011087],[119.92259922599226,-8.445291048691374],[120.71460714607144,-8.237106340481546],[121.34101341013411,-8.536689213271302],[122.00702007020072,-8.460524076121374],[122.90342903429035,-8.094931417801646]]],[[[159.87579875798758,-8.336967298078136],[159.9189991899919,-8.53838177187464],[159.13419134191344,-8.113549562438308],[158.58698586985872,-7.754727138531919],[158.21258212582126,-7.421293093675516],[158.360183601836,-7.319739577475588],[158.8209882098821,-7.560082899148739],[159.6417964179642,-8.020458839255042],[159.87579875798758,-8.336967298078136]]],[[[157.53937539375397,-7.348513073732235],[157.3377733777338,-7.404367507642192],[156.9021690216902,-7.177564654795702],[156.49176491764916,-6.766272914186018],[156.5421654216542,-6.598709612456162],[157.13977139771401,-7.021849263289155],[157.53937539375397,-7.348513073732235]]],[[[108.62208622086223,-6.778120824409342],[110.54090540905412,-6.877981782005932],[110.76050760507604,-6.464997482792924],[112.61452614526144,-6.945684126139213],[112.97812978129781,-7.593934071215372],[114.47934479344792,-7.776730400375229],[115.7069570695707,-8.37081847014477],[114.5657456574566,-8.751644155894468],[113.46413464134645,-8.34881520830146],[112.56052560525609,-8.37589614595477],[111.52371523715237,-8.301423567408165],[110.5877058770588,-8.12201235545497],[109.42849428494287,-7.741186669705257],[108.6940869408694,-7.641325712108667],[108.27648276482768,-7.766575048755243],[106.4548645486455,-7.355283308145559],[106.2820628206282,-6.925373422899227],[105.36405364053644,-6.850900844352623],[106.05166051660518,-5.896297792073369],[107.26487264872651,-5.955537343189988],[108.07128071280715,-6.3465183805596865],[108.48528485284857,-6.422683517709629],[108.62208622086223,-6.778120824409342]]],[[[134.7259472594726,-6.214498809499787],[134.2111421114211,-6.894907368039256],[134.1139411394114,-6.141718789556506],[134.29034290342906,-5.7828963656501315],[134.49914499144995,-5.444384644983728],[134.7259472594726,-5.73719728336016],[134.7259472594726,-6.214498809499787]]],[[[155.879758797588,-6.820434789492651],[155.5989559895599,-6.9202957470892414],[155.16695166951672,-6.536084944132867],[154.72774727747276,-5.901375467883369],[154.51534515345156,-5.139724096383958],[154.65214652146523,-5.04324825599403],[154.76014760147604,-5.339446011577138],[155.06255062550628,-5.566248864423628],[155.54855548555486,-6.200958340673125],[156.02016020160204,-6.539470061339529],[155.879758797588,-6.820434789492651]]],[[[151.98451984519846,-5.478235817050361],[151.45891458914588,-5.559478630010304],[151.30051300513009,-5.840443358163412],[150.75330753307531,-6.084171797043226],[150.24210242102424,-6.317744884303039],[149.70929709297093,-6.316052325699715],[148.8884888848889,-6.026624804529931],[148.319683196832,-5.74735263498016],[148.40248402484025,-5.43761441057039],[149.29889298892988,-5.583174450456951],[149.84609846098465,-5.505316754703671],[149.99729997299977,-5.02632266996072],[150.14130141301416,-5.000934290910735],[150.23850238502388,-5.532397692356994],[150.80730807308072,-5.456232555207052],[151.08811088110883,-5.1143357173339865],[151.64611646116464,-4.757205852030921],[151.53811538115383,-4.168195458071381],[152.13572135721358,-4.149577313434733],[152.33732337323374,-4.313755497957942],[152.31932319323192,-4.867222161247511],[151.98451984519846,-5.478235817050361]]],[[[127.2486724867249,-3.4590134032752786],[126.87426874268743,-3.790754889528344],[126.18306183061833,-3.6079585603684876],[125.9886598865989,-3.178048675122156],[127.00027000270006,-3.128964475625537],[127.2486724867249,-3.4590134032752786]]],[[[130.4707047070471,-3.0934207449555657],[130.83430834308342,-3.8584572336616247],[129.9918999189992,-3.445472934448617],[129.1566915669157,-3.3625375628853504],[128.59148591485916,-3.428547348415293],[127.90027900279006,-3.3930036177453218],[128.13428134281344,-2.8429220716624286],[129.37269372693726,-2.8023006651824574],[130.4707047070471,-3.0934207449555657]]],[[[153.14013140131402,-4.49993694432446],[152.8269282692827,-4.765668645047583],[152.63972639726398,-4.176658251088043],[152.4057240572406,-3.78906233092502],[151.95211952119524,-3.4623985204819405],[151.38331383313835,-3.0358737524422708],[150.66330663306633,-2.7413685554625005],[150.94050940509408,-2.499332675186025],[151.48051480514806,-2.7802974033391337],[151.8189181891819,-3.0003300217722995],[152.24012240122403,-3.240673343445451],[152.63972639726398,-3.6604278770717826],[153.02133021330212,-3.9803214531015385],[153.14013140131402,-4.49993694432446]]],[[[134.1427414274143,-1.1520560269337494],[134.42354423544236,-2.76844949311581],[135.45675456754566,-3.3676152386953504],[136.2919629196292,-2.306380994406169],[137.44037440374404,-1.7038301316199806],[138.32958329583295,-1.7021375730166426],[139.18639186391863,-2.050804645303046],[139.92799927999283,-2.409627069209421],[141.00081000810007,-2.600886191385939],[142.73602736027362,-3.28975754294207],[144.5828458284583,-3.8618423508682866],[145.2740527405274,-4.372995049074561],[145.82845828458284,-4.875684954264173],[145.98325983259832,-5.466387906827038],[147.64647646476465,-6.084171797043226],[147.89127891278912,-6.613942639886147],[146.969669696697,-6.722266390499385],[147.19287192871928,-7.387441921608868],[148.0856808568086,-8.04415465970169],[148.7336873368734,-9.105388903990857],[149.3060930609306,-9.071537731924224],[149.26649266492666,-9.514988085997203],[150.04050040500408,-9.684243946330412],[149.73809738097384,-9.872117951300268],[150.80010800108005,-10.293565043529938],[150.69210692106924,-10.582992564699708],[150.029700297003,-10.652387467436327],[149.78129781297815,-10.393426001126528],[148.92448924489247,-10.281717133306614],[147.9128791287913,-10.131079417610067],[147.13527135271352,-9.492984824153893],[146.56646566465668,-8.942903278070986],[146.04806048060482,-8.067850480148337],[144.7448474484745,-7.6294778018853435],[143.8988389883899,-7.915520205848466],[143.2868328683287,-8.245569133498208],[143.41283412834127,-8.983524684550957],[142.62802628026282,-9.32711408102736],[142.070020700207,-9.15955077929749],[141.03321033210335,-9.11723681421418],[140.1440014400144,-8.296345891598165],[139.12879128791292,-8.096623976404985],[138.88038880388802,-8.38097382176477],[137.61317613176135,-8.41143987662474],[138.0379803798038,-7.597319188422048],[138.66798667986683,-7.319739577475588],[138.4087840878409,-6.233116954136435],[137.92637926379263,-5.393607886883757],[135.98955989559897,-4.547328585217755],[135.1651516515165,-4.462700655051151],[133.6639366393664,-3.538563657631883],[133.36873368733688,-4.024327976788172],[132.98352983529838,-4.112341024161424],[132.75672756727568,-3.746748365841711],[132.7531275312753,-3.3117608047853935],[131.98991989919898,-2.820918809819105],[133.06633066330664,-2.460403827309392],[133.77913779137793,-2.4790219719460396],[133.69633696336962,-2.2149828298262406],[132.23112231122315,-2.2132902712229168],[131.8351183511835,-1.6175096428500524],[130.94230942309423,-1.433020755086858],[130.52110521105215,-0.9371010843105836],[131.86751867518677,-0.6950652040340941],[132.3787237872379,-0.3700939521943525],[133.98433984339846,-0.7796931342006985],[134.1427414274143,-1.1520560269337494]]],[[[125.23985239852402,1.4206330501309168],[124.43704437044374,0.4271011499750301],[123.68463684636845,0.23584202779851182],[122.72342723427238,0.43048626718169203],[121.05661056610569,0.3814020676850589],[120.18180181801819,0.23753458640183567],[120.04140041400416,-0.5190391092875757],[120.93420934209342,-1.4093249346402104],[121.47421474214741,-0.9557192289472312],[123.3390333903339,-0.6155149496774897],[123.259832598326,-1.0758908897838069],[122.82422824228246,-0.9303308498972456],[122.38862388623886,-1.5176486852534623],[121.50661506615069,-1.9052446054164847],[122.45342453424536,-3.186511468138818],[122.27342273422738,-3.530100864615221],[123.16983169831701,-4.684425832087655],[123.16263162631628,-5.341138570180476],[122.62982629826297,-5.633951208556908],[122.23742237422374,-5.283591577667181],[122.71982719827201,-4.464393213654489],[121.7370173701737,-4.851989133817526],[121.48861488614887,-4.574409522871065],[121.61821618216186,-4.188506161311366],[120.89820898208984,-3.602880884558502],[120.97380973809737,-2.6279671290392628],[120.30420304203045,-2.9309351190356807],[120.39060390603908,-4.097107996731438],[120.43020430204302,-5.529012575150318],[119.79659796597969,-5.6728800564335415],[119.36819368193682,-5.380067418057109],[119.6525965259653,-4.459315537844489],[119.49779497794981,-3.49455713394525],[119.07659076590767,-3.487786899531912],[118.7669876698767,-2.8023006651824574],[119.18099180991811,-2.14728048569296],[119.3249932499325,-1.3534705007302534],[119.82539825398254,0.1545992148385693],[120.03420034200343,0.5658909554482534],[120.88740887408875,1.308924182311003],[121.6686166861669,1.0144189853312326],[122.92862928629285,0.8756291798580094],[124.07704077040773,0.9179431449413045],[125.06705067050672,1.6440507857707445],[125.23985239852402,1.4206330501309168]]],[[[128.68868688686888,1.1328980875644703],[128.63468634686348,0.2578452896418213],[128.11988119881198,0.3560136886350733],[127.96867968679686,-0.25161484996111483],[128.3790837908379,-0.7796931342006985],[128.09828098280985,-0.8998647950372742],[127.69507695076953,-0.2668478773911005],[127.39987399874002,1.0110338681245707],[127.60147601476018,1.8099215288972772],[127.93267932679328,2.173821628613652],[128.0046800468005,1.6288177583407446],[128.59508595085953,1.5408047109674925],[128.68868688686888,1.1328980875644703]]],[[[105.8176581765818,-5.852291268386736],[104.70884708847092,-5.872601971626722],[103.86643866438664,-5.036478021580706],[102.5848258482585,-4.220664774774676],[102.15642156421563,-3.6147287947818256],[101.40041400414003,-2.8006081065791193],[100.90360903609036,-2.050804645303046],[100.14040140401403,-0.651058680347461],[99.26199261992622,0.1833727110952168],[98.97038970389707,1.0431924815878801],[98.59958599585997,1.823461997723939],[97.69957699576997,2.4530937981634366],[97.17757177571775,3.309528451449438],[96.42516425164251,3.8680727905490073],[95.38115381153813,4.97162099992147],[95.2947529475295,5.479388580921082],[95.93555935559357,5.438767174441111],[97.48357483574836,5.245815493661254],[98.36918369183695,4.2692091795386915],[99.14319143191432,3.5904931796025465],[99.6939969399694,3.1741237631828767],[100.64080640806407,2.0993490500670475],[101.65961659616596,2.084116022637062],[102.49842498424988,1.398629788287593],[103.07803078030781,0.5608132796382534],[103.83763837638378,0.10382245673861235],[103.43803438034382,-0.7119907900674178],[104.01044010440103,-1.0589653037504831],[104.37044370443704,-1.0843536828004687],[104.53964539645398,-1.781687827373247],[104.8888488884889,-2.3402321664728163],[105.62325623256231,-2.4282452138460826],[106.10926109261095,-3.0612621314922563],[105.85725857258575,-4.30529270494128],[105.8176581765818,-5.852291268386736]]],[[[117.87417874178743,1.826847114930601],[118.99738997389977,0.9027101175113188],[117.8129781297813,0.7842310152780811],[117.47817478174784,0.10212989813527429],[117.52137521375215,-0.803388954647346],[116.56016560165602,-1.4871826303934768],[116.53496534965353,-2.4840996477560395],[116.14976149761497,-4.012480066564848],[116.00216002160022,-3.6570427598651207],[114.86454864548648,-4.107263348351438],[114.46854468544689,-3.4962496925485738],[113.7557375573756,-3.438702700035293],[113.25533255332556,-3.118809124005537],[112.06732067320672,-3.477631547911926],[111.7037170371704,-2.9952523459622995],[111.04851048510488,-3.0494142212689326],[110.22410224102242,-2.934320236242357],[110.06930069300694,-1.5921212638000668],[109.57249572495726,-1.3145416528536202],[109.09009090090905,-0.45979955817095686],[108.95328953289533,0.41525323975170636],[109.06849068490686,1.3427753543776362],[109.66249662496625,2.0062583268837955],[110.39690396903973,1.66436148901073],[111.16731167311673,1.8505429353772485],[111.36891368913689,2.69682223704325],[111.79731797317976,2.88638880061643],[112.99612996129963,3.103036301842934],[113.71253712537128,3.8934611695989787],[114.2057420574206,4.526478087245152],[114.60174601746019,4.900533538581527],[115.45135451354514,5.447229967457773],[116.2217622176222,6.142871553427227],[116.7257672576726,6.92483362816661],[117.12897128971292,6.928218745373272],[117.64377643776442,6.422143722977012],[117.69057690576909,5.98715616192068],[118.34938349383492,5.7078839923708955],[119.18099180991811,5.408301119581125],[119.10899108991089,5.015627523608103],[118.43938439384397,4.966543324111484],[118.61938619386194,4.477393887748519],[117.88137881378816,4.137189608478792],[117.31257312573126,3.2350558729028336],[118.04698046980474,2.287223055036904],[117.87417874178743,1.826847114930601]]],[[[126.37746377463776,8.414285199098785],[126.47826478264784,7.75080222659264],[126.53586535865361,7.188872770286409],[126.19746197461978,6.274891124487127],[125.83025830258305,7.293811403692999],[125.36225362253623,6.786043822693387],[125.68265682656829,6.049780830243961],[125.39825398253981,5.580942097120996],[124.22104221042213,6.161489698063875],[123.94023940239401,6.885904780289977],[124.24264242642425,7.3598211892229415],[123.60903609036092,7.833737598155906],[123.29583295832958,7.41906074033956],[122.82422824228246,7.4579895882161935],[122.08622086220862,6.8994452491166385],[121.9206192061921,7.192257887493071],[122.31302313023133,8.03515207195241],[122.9430294302943,8.316116800105533],[123.48663486634865,8.69355736864857],[123.83943839438393,8.23995166295559],[124.60264602646026,8.514146156695375],[124.76464764647648,8.96098162797503],[125.47025470254704,8.986370007025002],[125.41265412654127,9.759869288747737],[126.22266222662228,9.285952879814772],[126.30546305463054,8.78326297462516],[126.37746377463776,8.414285199098785]]],[[[81.21861218612185,6.197033428733846],[80.34740347403476,5.9685380172840325],[79.87219872198722,6.764040560850077],[79.6957969579696,8.201022815078957],[80.14940149401497,9.824186515674356],[80.84060840608407,9.269027293781448],[81.30501305013053,8.564922914795332],[81.78741787417874,7.522306815142812],[81.63621636216362,6.481383274093631],[81.21861218612185,6.197033428733846]]],[[[-60.93600936009359,10.110228919637464],[-61.77121771217712,10.000212610420874],[-61.951219512195124,10.089918216397479],[-61.65961659616596,10.365805268740587],[-61.68121681216812,10.760171423316947],[-61.10521105211052,10.890498435773523],[-60.89640896408963,10.854954705103538],[-60.93600936009359,10.110228919637464]]],[[[123.98343983439838,10.279484779970659],[123.62343623436237,9.949435852320917],[123.31023310233104,9.318111493278082],[122.9970299702997,9.021913737694973],[122.38142381423813,9.714170206457766],[122.58662586625866,9.981594465784227],[122.83862838628386,10.260866635334011],[122.94662946629467,10.882035642756861],[123.49743497434974,10.94127519387348],[123.3390333903339,10.267636869747335],[124.07704077040773,11.232395273646588],[123.98343983439838,10.279484779970659]]],[[[118.5041850418504,9.316418934674743],[117.1757717577176,8.36689355820549],[117.66537665376654,9.067612819984944],[118.38538385383856,9.683704151597794],[118.98658986589868,10.375960620360587],[119.51219512195121,11.369492520516474],[119.68859688596888,10.553679273710443],[119.02979029790299,10.003597727627536],[118.5041850418504,9.316418934674743]]],[[[121.88461884618846,11.892493128946072],[122.48222482224821,11.582754904536316],[123.11943119431197,11.58444746313964],[123.10143101431015,11.166385488116632],[122.6370263702637,10.7415532786803],[122.00342003420036,10.440277847287206],[121.96741967419678,10.905731463203509],[122.03942039420394,11.415191602806445],[121.88461884618846,11.892493128946072]]],[[[125.50265502655026,12.163302505479194],[125.78345783457837,11.046213827280056],[125.01305013050131,11.311945528003193],[125.03105031050313,10.975126365940113],[125.2758527585276,10.359035034327263],[124.80064800648006,10.133924740084112],[124.76104761047611,10.838029119070228],[124.45864458644587,10.890498435773523],[124.30384303843039,11.49474185716305],[124.89064890648905,11.415191602806445],[124.87624876248765,11.794324729952805],[124.2678426784268,12.55766866005554],[125.22545225452257,12.535665398212231],[125.50265502655026,12.163302505479194]]],[[[121.52821528215281,13.068821358261815],[121.26181261812621,12.20561647056249],[120.83340833408334,12.704921258545426],[120.32220322203221,13.466572630044837],[121.1790117901179,13.429336340771528],[121.52821528215281,13.068821358261815]]],[[[121.32301323013229,18.503627033560903],[121.93861938619386,18.21927718820112],[122.24462244622447,18.478238654510918],[122.33822338223382,18.22435486401112],[122.1726217262173,17.809678006194773],[122.51462514625149,17.093725716985332],[122.2518225182252,16.262679442749317],[121.66141661416617,15.930937956496251],[121.50661506615069,15.125280061310207],[121.72981729817297,14.328084959140824],[122.25902259022592,14.218068649924248],[122.7018270182702,14.336547752157486],[123.9510395103951,13.781388530264593],[123.85383853838539,13.23807721859501],[124.18144181441818,12.997733896921872],[124.07704077040773,12.537357956815569],[123.29943299432995,13.028199951781843],[122.92862928629285,13.552893118814765],[122.67302673026734,13.185607901891728],[122.03582035820358,13.784773647471255],[121.1250112501125,13.63752104898137],[120.62820628206282,13.857553667414535],[120.67860678606786,14.270537966627543],[120.9918099180992,14.52611431573068],[120.69300693006932,14.756302285783832],[120.56340563405632,14.395787303274105],[120.07020070200701,14.971257228406998],[119.92259922599226,15.406244789463315],[119.88299882998831,16.364232958949245],[120.28620286202863,16.034184031299503],[120.39060390603908,17.599800739381607],[120.71460714607144,18.50531959216424],[121.32301323013229,18.503627033560903]]],[[[-65.59085590855908,18.22773998121778],[-65.84645846458464,17.97554874932132],[-66.59886598865988,17.982318983734643],[-67.18567185671856,17.946775253064672],[-67.24327243272432,18.374992579707666],[-67.09927099270992,18.520552619594227],[-66.2820628206282,18.515474943784227],[-65.77085770857708,18.42746189641096],[-65.59085590855908,18.22773998121778]]],[[[-76.90216902169021,17.86891755731139],[-77.20457204572045,17.701354255581535],[-77.76617766177661,17.862147322898068],[-78.33858338583386,18.226047422614457],[-78.21618216182162,18.45454283406427],[-77.79857798577986,18.52393773680089],[-77.56817568175681,18.49008656473424],[-76.8949689496895,18.40038095875765],[-76.36576365763658,18.1600376370845],[-76.20016200162001,17.887535701948053],[-76.90216902169021,17.86891755731139]]],[[[-72.57852578525785,19.871214385053165],[-71.71091710917109,19.713806434943294],[-71.58851588515884,19.884754853879826],[-70.80730807308073,19.879677178069826],[-70.21330213302133,19.622408270363366],[-69.95049950499505,19.647796649413337],[-69.77049770497705,19.294051901316948],[-69.22329223292232,19.31267004595361],[-69.25569255692557,19.014779731767163],[-68.80928809288092,18.979236001097192],[-68.31968319683196,18.611950784174155],[-68.69048690486905,18.20573671937447],[-69.16569165691656,18.42238422060096],[-69.62289622896229,18.380070255517666],[-69.9540995409954,18.42746189641096],[-70.1341013410134,18.246358125854442],[-70.51570515705157,18.183733457531147],[-70.67050670506704,18.42746189641096],[-71.00171001710017,18.283594415127737],[-71.40131401314012,17.598108180778283],[-71.65691656916569,17.757208689491492],[-71.70731707317073,18.044943652057924],[-72.37332373323733,18.214199512391133],[-72.8449284492845,18.144804609654514],[-73.45333453334533,18.217584629597795],[-73.92133921339213,18.031403183231276],[-74.45774457744577,18.342833966244356],[-74.37134371343713,18.66442010087745],[-73.44973449734496,18.525630295404213],[-72.69372693726937,18.44608004104761],[-72.33372333723337,18.667805218084112],[-72.79092790927909,19.101100220537106],[-72.78372783727836,19.483618464890142],[-73.41373413734136,19.639333856396675],[-73.19053190531905,19.915220908739798],[-72.57852578525785,19.871214385053165]]],[[[110.33930339303396,18.677960569704098],[109.47529475294755,18.19727392635781],[108.65448654486545,18.507012150767565],[108.6256862568626,19.368524479863567],[109.1188911889119,19.820437626953208],[110.21330213302133,20.101402355106316],[110.78570785707859,20.07770653465967],[111.00891008910088,19.695188290306632],[110.56970569705697,19.255123053440315],[110.33930339303396,18.677960569704098]]],[[[-155.54135541355413,19.084174634503782],[-155.68895688956889,18.91661133277391],[-155.93735937359372,19.058786255453796],[-155.90855908559087,19.33805842500358],[-156.07416074160741,19.703651083323294],[-156.02376023760237,19.813667392539884],[-155.8509585095851,19.97784557706308],[-155.91935919359193,20.174182375049597],[-155.8617586175862,20.267273098232863],[-155.7861578615786,20.2486549535962],[-155.4009540095401,20.079399093263007],[-155.22455224552246,19.99307860449308],[-155.06255062550625,19.85936647482984],[-154.80694806948068,19.509006843940114],[-154.8321483214832,19.453152410030157],[-155.2209522095221,19.23989002601033],[-155.54135541355413,19.084174634503782]]],[[[-156.07776077760778,20.6447136667759],[-156.4161641616416,20.57193364683262],[-156.58536585365854,20.783503472249123],[-156.70056700567005,20.86474628520905],[-156.71136711367114,20.927370953532346],[-156.61416614166143,21.011998883698936],[-156.25776257762578,20.917215601912346],[-155.9949599495995,20.764885327612475],[-156.07776077760778,20.6447136667759]]],[[[-156.75816758167582,21.176177068222145],[-156.79056790567904,21.06954587621223],[-157.3269732697327,21.09831937246888],[-157.25137251372513,21.22018359190878],[-156.75816758167582,21.176177068222145]]],[[[-157.65457654576545,21.321737108108707],[-157.70857708577086,21.26419011559541],[-157.7769777697777,21.277730584422073],[-158.12618126181263,21.313274315092045],[-158.2521825218252,21.538384609335196],[-158.29178291782918,21.579006015815168],[-158.02538025380255,21.71779582128839],[-157.94257942579426,21.653478594361772],[-157.65457654576545,21.321737108108707]]],[[[-159.34659346593466,21.98183496340819],[-159.46539465394653,21.883666564414924],[-159.80019800198002,22.064770334971456],[-159.74979749797498,22.137550354914737],[-159.5949959499595,22.23571875390799],[-159.36459364593645,22.215408050668003],[-159.34659346593466,21.98183496340819]]],[[[-79.67779677796777,22.76548959675091],[-79.28179281792818,22.399896938431198],[-78.34578345783457,22.51160580625111],[-77.99297992979929,22.278032718991284],[-77.1469714697147,21.658556270171772],[-76.52416524165241,21.20664312308213],[-76.19296192961929,21.22018359190878],[-75.5989559895599,21.017076559508936],[-75.6709567095671,20.73441927275249],[-74.9329493294933,20.69379786627252],[-74.1769417694177,20.284198684266173],[-74.29574295742957,20.05062559700636],[-74.96174961749617,19.92368370175646],[-75.6349563495635,19.874599502259827],[-76.32256322563225,19.952457198013107],[-77.75537755377553,19.85598135762318],[-77.08577085770857,20.41283313811941],[-77.49257492574925,20.673487163032547],[-78.1369813698137,20.73949694856249],[-78.48258482584825,21.02892446973226],[-78.72018720187201,21.597624160451815],[-79.28539285392854,21.558695312575182],[-80.21780217802177,21.827812130504967],[-80.51660516605166,22.037689397318147],[-81.81981819818198,22.191712230221356],[-82.1690216902169,22.386356469604536],[-81.79461794617946,22.636855142897673],[-82.77742777427774,22.68763190099763],[-83.49383493834938,22.168016409774708],[-83.90783907839078,22.154475940948046],[-84.05184051840519,21.910747502068247],[-84.54864548645486,21.800731192851657],[-84.97344973449734,21.895514474638247],[-84.44784447844478,22.205252699048017],[-84.23184231842318,22.56576768155773],[-83.77823778237781,22.78749285859422],[-83.2670326703267,22.98382965658074],[-82.5110251102511,23.07861293836733],[-82.26982269822697,23.188629247583904],[-81.40581405814058,23.11754178624396],[-80.61740617406174,23.105693876020638],[-79.67779677796777,22.76548959675091]]],[[[-77.53577535775358,23.759021496906797],[-77.78057780577805,23.709937297410164],[-78.03258032580325,24.285407222543057],[-78.40698406984069,24.574834743712827],[-78.1909819098191,25.209544219962325],[-77.88857888578886,25.17061537208569],[-77.53937539375393,24.339569097849676],[-77.53577535775358,23.759021496906797]]],[[[121.17541175411753,22.790877975800882],[120.74700747007472,21.969987053184866],[120.22140221402213,22.81457379624753],[120.10620106201065,23.555914464506955],[120.69300693006932,24.539291013042856],[121.4958149581496,25.295864708732267],[121.95301953019532,24.997974394545835],[121.77661776617765,24.393730973156295],[121.17541175411753,22.790877975800882]]],[[[-77.82017820178201,26.580516688661262],[-78.91098910989109,26.419723621344716],[-78.97938979389794,26.79039395547443],[-78.51138511385113,26.869944209831033],[-77.8489784897849,26.83947815497106],[-77.82017820178201,26.580516688661262]]],[[[-76.99936999369993,26.590672040281248],[-77.17217172171722,25.879797426881808],[-77.35577355773557,26.006739322131708],[-77.34137341373413,26.529739930561306],[-77.78777787777878,26.92579864374099],[-77.79137791377913,27.039200070164227],[-76.99936999369993,26.590672040281248]]],[[[134.63954639546398,34.14963876276201],[134.76554765547655,33.80604936628562],[134.20394203942038,33.20180594489608],[133.7935379353794,33.521699520925836],[133.2787327873279,33.289818992269346],[133.0159301593016,32.70419371551648],[132.36432364323645,32.98854356087625],[132.37152371523717,33.464152528412555],[132.92592925929262,34.05993315678542],[133.49473494734946,33.944839171758844],[133.9051390513905,34.364593705385175],[134.63954639546398,34.14963876276201]]],[[[34.57654576545767,35.671248947157494],[33.89973899738999,35.24641673772116],[33.97533975339755,35.058542732751306],[34.00414004140043,34.97729991979136],[32.97812978129781,34.57108585499168],[32.488524885248864,34.701412867448255],[32.25812258122582,35.10254925643794],[32.73332733327334,35.139785545711234],[32.80172801728017,35.144863221521234],[32.94572945729459,35.38689910179771],[33.66573665736658,35.37335863297106],[34.57654576545767,35.671248947157494]]],[[[23.700837008370087,35.70510011922413],[24.2480424804248,35.36828095716106],[25.02565025650256,35.42582794967434],[25.770857708577097,35.3547404883344],[25.745657456574577,35.180406952191206],[26.289262892628926,35.30057861302778],[26.163261632616326,35.00438085744467],[24.723247232472346,34.91975292727808],[24.73404734047341,35.085623670404615],[23.513635136351382,35.280267909787796],[23.700837008370087,35.70510011922413]]],[[[15.521555215552155,38.2303975553955],[15.161551615516174,37.4433578048461],[15.30915309153093,37.133619580436346],[15.100351003510042,36.62077432362675],[14.333543335433347,36.99652233356646],[13.82593825938261,37.1048460841797],[12.432724327243278,37.61261366517931],[12.56952569525697,38.12715148059223],[13.739537395373958,38.035753316012304],[14.761947619476189,38.144077066625556],[15.521555215552155,38.2303975553955]]],[[[9.210692106921073,41.209300697259835],[9.808298082980826,40.50011864246372],[9.667896678966798,39.17653781465809],[9.214292142921437,39.24085504158471],[8.807488074880752,38.90742099672829],[8.42948429484295,39.17146013884809],[8.389883898839003,40.37825442302382],[8.159481594815958,40.950339230950036],[8.710287102871035,40.89956247285008],[9.210692106921073,41.209300697259835]]],[[[140.97560975609758,37.14208237345301],[140.60120601206012,36.3431947126803],[140.77400774007742,35.84219736609403],[140.2520025200252,35.13809298710791],[138.97398973989743,34.66756169538161],[137.21717217172176,34.60662958566165],[135.79155791557918,33.464152528412555],[135.1219512195122,33.848363331368915],[135.0787507875079,34.596474234041665],[133.33993339933403,34.3764416156085],[132.15552155521556,33.90421776527887],[130.98550985509854,33.885599620642225],[132.00072000720007,33.1493366281928],[131.3311133111331,31.450007790447458],[130.68670686706866,31.030253256821112],[130.20070200702008,31.41784917698415],[130.44910449104492,32.31998291256011],[129.81549815498158,32.611102992333215],[129.4086940869409,33.296589226682684],[130.35550355503557,33.6046348924891],[130.8775087750878,34.232574134325276],[131.88551885518854,34.750497066944874],[132.61632616326165,35.43259818408768],[134.6071460714607,35.73218105687744],[135.67635676356764,35.52738146587427],[136.7239672396724,37.30456799937288],[137.389973899739,36.82726647323325],[138.8587885878859,37.827568607802476],[139.4275942759428,38.2151645279655],[140.0540005400054,39.43888439817455],[139.88479884798846,40.562743310787],[140.3060030600306,41.19576022843317],[141.3680136801368,41.37855655759303],[141.91521915219153,39.99235106146412],[141.8828188281883,39.181615490468076],[140.96120961209613,38.17454312148554],[140.97560975609758,37.14208237345301]]],[[[9.55989559895599,42.152055839315764],[9.228692286922865,41.38024911619637],[8.775087750877503,41.58335614859621],[8.544685446854487,42.25699447272234],[8.746287462874648,42.62766480685207],[9.390693906939077,43.010183051205104],[9.55989559895599,42.152055839315764]]],[[[143.90963909639095,44.17466337029751],[144.6116461164612,43.96140098627768],[145.32085320853207,44.38454063711069],[145.54405544055442,43.262374283101565],[144.06084060840607,42.988179789361766],[143.18243182431826,41.99464788920588],[141.61281612816128,42.67844156495201],[141.06561065610657,41.58504870719953],[139.9567995679957,41.56981567976955],[139.81639816398166,42.56334757992545],[140.31320313203133,43.33346174444151],[141.3788137881379,43.389316178351464],[141.67041670416705,44.77213655727371],[141.96921969219693,45.55071351480643],[143.1428314283143,44.50978997375725],[143.90963909639095,44.17466337029751]]],[[[-63.664836648366474,46.54932309077233],[-62.937629376293756,46.41561096110911],[-62.01242012420124,46.442691898762405],[-62.505625056250565,46.03309271675607],[-62.872828728287274,45.968775489829454],[-64.14364143641436,46.39191514066246],[-64.3920439204392,46.727041744122175],[-64.0140401404014,47.03677996853196],[-63.664836648366474,46.54932309077233]]],[[[-61.80721807218072,49.105086581803675],[-62.29322293222931,49.086468437167014],[-63.589235892358914,49.401284337386755],[-64.51804518045181,49.873508187716396],[-64.17244172441724,49.95644355927968],[-62.85842858428583,49.705944885986526],[-61.8360183601836,49.28788291096353],[-61.80721807218072,49.105086581803675]]],[[[-123.50823508235082,48.50930595343078],[-124.01224012240122,48.370516147957574],[-125.65385653856538,48.82581441225389],[-125.95625956259562,49.179559160350266],[-126.84906849068491,49.52991879123999],[-127.0290702907029,49.81426863659976],[-128.05868058680585,49.99537240715631],[-128.44388443884438,50.538683718825865],[-128.35748357483575,50.770564247482355],[-127.30987309873098,50.55222418765254],[-126.69426694266943,50.401586471955994],[-125.75465754657546,50.294955279946066],[-125.41625416254163,49.949673324866325],[-124.91944919449195,49.475756915933374],[-123.92223922239222,49.062772616720366],[-123.50823508235082,48.50930595343078]]],[[[-56.13356133561335,50.6876288759191],[-56.79596795967959,49.812576077996454],[-56.14436144361443,50.149395240059505],[-55.471154711547115,49.93613285603968],[-55.823958239582396,49.58746578375329],[-54.934749347493465,49.31327129001349],[-54.47394473944739,49.55699972889332],[-53.476734767347665,49.24895406308687],[-53.786337863378634,48.516076187844135],[-53.087930879308786,48.68702460678065],[-52.95832958329582,48.157253763937746],[-52.64872648726487,47.536084756514896],[-53.069930699306994,46.65595428278223],[-53.51993519935199,46.61871799350894],[-54.17874178741786,46.80659199847878],[-53.962739627396274,47.62579036249147],[-54.239942399423995,47.7527322577414],[-55.399153991539904,46.884449694232075],[-55.99675996759967,46.91999342490203],[-55.29115291152911,47.388832158025],[-56.25236252362524,47.632560596904824],[-57.32517325173251,47.57332104578819],[-59.265592655926554,47.60378710064816],[-59.42039420394204,47.89998485623127],[-58.79758797587975,48.252037045724336],[-59.23319233192332,48.52284642225746],[-58.39078390783908,49.12539728504365],[-57.357573575735756,50.718094930779074],[-56.73836738367383,51.286794621498615],[-55.87075870758707,51.632076576578356],[-55.40635406354063,51.58807005289174],[-55.600756007560065,51.317260676358615],[-56.13356133561335,50.6876288759191]]],[[[-132.709927099271,54.0405874691198],[-131.74871748717487,54.120137723476404],[-132.0511205112051,52.98443090064063],[-131.17991179911797,52.180465564057926],[-131.57951579515796,52.182158122661264],[-132.18072180721808,52.63914894556089],[-132.55152551525515,53.09952488566722],[-133.05553055530555,53.41095566868029],[-133.23913239132392,53.85102090554662],[-133.18153181531815,54.16922192297304],[-132.709927099271,54.0405874691198]]],[[[143.6468364683647,50.74686842703571],[144.6548465484655,48.97645212795044],[143.17523175231753,49.306501055600165],[142.55962559625596,47.86105600835464],[143.53523535235354,46.83705805333878],[143.50643506435068,46.138031350162635],[142.74682746827472,46.74058221294885],[142.0916209162092,45.967082931226116],[141.9080190801908,46.80659199847878],[142.01962019620197,47.779813195394695],[141.90441904419043,48.85966558432051],[142.1348213482135,49.61454672140661],[142.18162181621818,50.9516680180389],[141.59481594815952,51.93504456657479],[141.68121681216815,53.30263191806705],[142.60642606426063,53.761315299570015],[142.21042210422104,54.225076356882994],[142.6532265322653,54.36555872095954],[142.9160291602916,53.70376830705675],[143.26163261632615,52.74070246176083],[143.23643236432366,51.75732591322492],[143.6468364683647,50.74686842703571]]],[[[-6.787867878678782,52.26001581841453],[-8.56268562685625,51.66931286585165],[-9.977499774997739,51.8199505815482],[-9.167491674916732,52.864259239804056],[-9.689496894968954,53.88148696040659],[-8.32868328683287,54.665141593749325],[-7.572675726757268,55.13228776826895],[-6.733867338673377,55.17290917474892],[-5.661056610566106,54.55512528453275],[-6.197461974619728,53.86794649157994],[-6.031860318603179,53.15368676097384],[-6.787867878678782,52.26001581841453]]],[[[12.688326883268843,55.60958929440858],[12.09072090720909,54.80054628201589],[11.04311043110431,55.36416829692544],[10.902709027090282,55.780537713345126],[12.371523715237146,56.11058664099485],[12.688326883268843,55.60958929440858]]],[[[-153.0069300693007,57.11596645137408],[-154.0041400414004,56.73514076562438],[-154.51534515345153,56.992409673330826],[-154.67014670146702,57.46124840645379],[-153.7629376293763,57.81668571315353],[-153.230132301323,57.96901598745342],[-152.5641256412564,57.90131364332012],[-152.14292142921428,57.59157541891037],[-153.0069300693007,57.11596645137408]]],[[[-3.0042300423004065,58.634191518562886],[-4.073440734407342,57.55264657103373],[-3.0546305463054466,57.68974381790363],[-1.9602196021960197,57.68466614209362],[-2.2194221942219485,56.87054545389094],[-3.119431194311943,55.973489394124954],[-2.08622086220862,55.909172167198335],[-1.114211142111401,54.624520187269354],[-0.4302043020430233,54.46372711995281],[0.1854018540185507,53.32463517991036],[0.46980469804699965,52.93026902533401],[1.6830168301682988,52.739009903157495],[1.5606156061560625,52.09922275109798],[1.0494104941049613,51.80641011272155],[1.4490144901449185,51.29017973870529],[0.5490054900548955,50.76548657167237],[-0.7866078660786684,50.77564192329237],[-2.489424894248941,50.49975487094923],[-2.9574295742957304,50.696091668935765],[-3.6162361623616164,50.22894549441611],[-4.541445414454131,50.34234692083936],[-5.243452434524329,49.959828676486325],[-5.776257762577615,50.159550591679505],[-4.311043110431086,51.210629484348686],[-3.414634146341456,51.42558442697185],[-4.9842498424984285,51.59314772870172],[-5.268652686526849,51.990899000484745],[-4.221042210422098,52.3006372248945],[-4.768247682476812,52.84056341935741],[-4.581045810458107,53.495583598846906],[-3.090630906309059,53.404185434266964],[-2.9466294662946666,53.98473303520984],[-3.6306363063630442,54.614364835649354],[-4.843848438484372,54.79039093039589],[-5.081450814508145,55.06120030692901],[-4.7178471784717715,55.508035778208665],[-5.0490504905048965,55.783922830551774],[-5.585455854558546,55.31169898022216],[-5.64665646656465,56.274764825518076],[-6.150661506615052,56.784224965120984],[-5.787057870578707,57.81837827175687],[-5.009450094500949,58.63080640135621],[-4.210242102421006,58.551256146999606],[-3.0042300423004065,58.634191518562886]]],[[[-165.57825578255782,59.910380705475234],[-166.1938619386194,59.75466531396867],[-166.8490684906849,59.940846760335205],[-167.4538745387454,60.213348695471666],[-166.46746467464675,60.384297114408184],[-165.67545675456753,60.29289894982827],[-165.57825578255782,59.910380705475234]]],[[[-79.26739267392674,62.15809853070013],[-79.65619656196561,61.63340536366721],[-80.0990009900099,61.7180332938338],[-80.36180361803618,62.015923608020245],[-80.3150031500315,62.08531851075685],[-79.92979929799297,62.384901383546634],[-79.51939519395194,62.362898121703296],[-79.26739267392674,62.15809853070013]]],[[[-81.8990189901899,62.71156519398971],[-83.0690306903069,62.15979108930347],[-83.77463774637746,62.18179435114678],[-83.99423994239942,62.4526037276799],[-83.2490324903249,62.91467222638954],[-81.87741877418773,62.90451687476954],[-81.8990189901899,62.71156519398971]]],[[[-171.73071730717308,63.78295478989887],[-171.1151111511115,63.59169566772235],[-170.49230492304923,63.6949417425256],[-169.68229682296823,63.4309026004058],[-168.68868688686888,63.29719047074258],[-168.77148771487714,63.18886672012934],[-169.5310953109531,62.97729689471282],[-170.29070290702907,63.193944395939326],[-170.67230672306724,63.375048166495844],[-171.55431554315544,63.31750117398255],[-171.79191791917918,63.405514221355816],[-171.73071730717308,63.78295478989887]]],[[[-85.16065160651605,65.65661716378739],[-84.9770497704977,65.21824448552442],[-84.46224462244622,65.37226731842762],[-83.88263882638826,65.10992073491116],[-82.78822788227882,64.76633133843475],[-81.64341643416434,64.45490055542166],[-81.55341553415533,63.97929158788537],[-80.8190081900819,64.05714928363864],[-80.10260102601026,63.72540779738557],[-80.99180991809918,63.41059189716583],[-82.5470254702547,63.65093521883898],[-83.10863108631087,64.10115580732528],[-84.09864098640986,63.56969240587904],[-85.52425524255243,63.05176947325944],[-85.86625866258662,63.637394750012305],[-87.22347223472235,63.54091890962238],[-86.35226352263523,64.03514602179533],[-86.22626226262263,64.82218577234471],[-85.88425884258842,65.73955253535067],[-85.16065160651605,65.65661716378739]]],[[[-14.509945099450988,66.45550482456011],[-14.740347403474033,65.80894743808727],[-13.609936099360993,65.12684632094448],[-14.909549095490945,64.36350239084175],[-17.793177931779326,63.678016156492276],[-18.657186571865708,63.49691238593576],[-19.971199711997116,63.64416498442563],[-22.761227612276116,63.96067344324874],[-21.778417784177833,64.40243123871838],[-23.95643956439565,64.89158067508134],[-22.18522185221852,65.08453235586117],[-22.22842228422283,65.37903755284094],[-24.327243272432725,65.61091808149743],[-23.650436504365047,66.26255314378025],[-22.134821348213478,66.40980574227015],[-20.576005760057598,65.73278230093734],[-19.056790567905665,66.27609361260693],[-17.800378003780025,65.99343632585047],[-16.16956169561695,66.52659228590005],[-14.509945099450988,66.45550482456011]]],[[[-75.86535865358653,67.14945385192624],[-76.98856988569885,67.09867709382627],[-77.23697236972369,67.58782653018923],[-76.81216812168121,68.14806342789211],[-75.89415894158941,68.28685323336535],[-75.11295112951129,68.01096618102224],[-75.10215102151021,67.58274885437922],[-75.21735217352173,67.44395904890601],[-75.86535865358653,67.14945385192624]]],[[[-180,68.96387667469816],[-172.95472954729547,64.25348608162517],[-180,64.97959372245461],[173.67833678336785,61.65202350830387],[162.0538205382054,57.83868897499684],[156.419764197642,51.69977892071162],[163.259832598326,62.46614419650655],[148.54648546485464,59.163962361405794],[141.3788137881379,52.23970511517456],[132.27792277922782,43.284377544944874],[127.53307533075332,39.75708541560097],[126.48546485464857,34.38998208443516],[124.71064710647107,38.108533335955585],[121.58581585815858,39.36102670242127],[118.91098910989109,37.4484354806561],[120.62100621006209,33.37613948103929],[119.58419584195843,25.741007621408585],[109.88929889298896,20.28250612566285],[108.8776887768878,15.275917777006754],[103.09243092430927,11.152845019289984],[100.28080280802811,8.295806096865547],[103.50283502835032,2.79160551882984],[100.3060030600306,6.041318037227299],[98.76518765187654,11.440579981856416],[94.53514535145354,17.27652204614519],[90.58590585905858,22.39312670401786],[85.05985059850599,19.478540789080142],[79.86139861398613,12.056671313469266],[75.39735397353974,11.780784261126158],[69.16569165691658,22.088466155418104],[58.52758527585277,25.610680608952023],[49.57789577895781,29.98594459856527],[50.21150211502115,26.27754869866483],[51.38871388713889,24.627304060416122],[56.486364863648646,26.30970731212814],[59.80559805598057,22.310191332454593],[56.60876608766088,18.574714494900846],[52.19152191521917,15.937708190909575],[45.40545405454054,13.02650739317852],[42.80622806228064,15.262377308180106],[39.80019800198002,20.338360559572806],[36.250562505625055,26.570361337041263],[33.921339213392145,27.648521167363754],[35.49455494554945,23.752251262493473],[39.267392673926736,15.92247516347959],[43.472234722347224,11.278094355936545],[49.72909729097293,11.57936978732964],[48.59508595085953,5.338906216844521],[40.264602646026475,-2.5738052537326297],[39.18819188191884,-8.485912455171345],[39.450994509945104,-16.720210060381575],[35.56295562955631,-22.090698508754052],[32.83052830528305,-26.74184955071042],[27.46647466474664,-33.22773411867868],[20.072000720007196,-34.79504338536413],[17.566375663756645,-30.726132502953973],[13.869138691386922,-21.69971747138436],[12.738727387273883,-13.137063497127713],[12.72792727927279,-6.927065981502565],[9.289892898928997,0.2680006412618212],[7.083070830708323,4.4655459775251956],[-1.0638106381063608,5.000394496178117],[-9.005490054900548,4.8328311944482465],[-14.329943299432983,10.01544563785086],[-16.842768427684263,13.151756729825081],[-16.378363783637838,19.593634774106718],[-15.08955089550895,24.52067286840621],[-9.815498154981555,31.177505855310997],[-2.6046260462604494,35.17871439358788],[7.738277382773845,36.88650602434987],[10.150301503015044,34.33074253331854],[18.019980199802006,30.762828997494665],[23.927639276392767,32.017014922563675],[31.959319593195943,30.933777416431198],[35.48375483754839,33.90591032388221],[31.700117001170014,36.644470144073395],[28.820088200882026,40.45949723598375],[41.70461704617048,41.96248927574257],[39.148591485914864,47.04524276154859],[35.23895238952392,44.93969985900358],[30.378903789037906,46.03309271675607],[28.80568805688057,41.05527786435661],[23.34443344433444,39.961885006604135],[22.775627756277572,37.30456799937288],[19.40599405994061,40.25131252777392],[15.175951759517602,44.24405827303411],[12.328323283232834,45.38145765447325],[17.51957519575197,40.877559211006755],[15.683556835568368,37.908811420762405],[12.105121051210517,41.70522036803611],[3.101431014310151,43.074500278131694],[-1.4382143821438262,37.4433578048461],[-8.382683826838274,36.97959674753314],[-8.991089910899092,41.54273474211624],[-1.1934119341193252,46.01447457211941],[2.5146251462514613,51.148004816025406],[8.526685266852667,54.96303190793574],[10.913509135091346,56.45925371328124],[14.121141211412123,53.75623762376003],[21.580415804158037,57.412164206957186],[26.948069480694812,59.446619648162255],[21.537215372153725,63.19055927873265],[17.119971199712012,61.340592725290776],[11.788317883178848,57.44263026181716],[12.357123571235718,65.88003489942722],[31.10251102511026,69.55796474446768],[34.81414814148141,65.90034560266722],[43.0150301503015,66.41826853528681],[47.89307893078933,66.8837221512031],[61.07641076410766,68.94018085425151],[66.7248672486725,70.70890459473344],[73.66933669336694,68.40871745280526],[73.60093600936011,69.62735964720429],[79.6525965259653,72.32022038510553],[92.90072900729007,75.77303993590283],[106.969669696697,76.97475654426856],[112.11772117721176,73.7876686941944],[128.59148591485916,73.0378652329183],[139.14679146791468,72.41669622549546],[164.05184051840519,69.66798105368426],[-180,68.96387667469816]],[[49.10989109891099,41.2820807172031],[49.61749617496176,40.572898662407],[50.08550085500855,40.525507021513704],[50.39150391503915,40.256390203583905],[49.57069570695708,40.1768399492273],[49.39429394293944,39.39995555029792],[49.22509225092253,39.04959591940819],[48.85788857888579,38.81602283214836],[48.88308883088831,38.32010316137209],[49.19989199892001,37.582147610319325],[50.14670146701468,37.3739629021095],[50.84150841508415,36.87296555552322],[52.263522635226366,36.70032457798335],[53.82593825938261,36.96436372010315],[53.92313923139233,37.1996293659663],[53.735937359373594,37.90542630355574],[53.879938799388015,38.951427520414924],[53.10233102331023,39.28993924108133],[53.35793357933579,39.9754254754308],[52.69552695526957,40.03297246794408],[52.915129151291524,40.87586665240343],[53.85833858338583,40.63044565492028],[54.7367473674737,40.950339230950036],[54.00954009540095,41.5511975351329],[53.721537215372166,42.12328234305912],[52.915129151291524,41.86770599395598],[52.81432814328144,41.13482811871323],[52.50112501125011,41.78307806378939],[52.447124471244734,42.02680650266919],[52.69192691926921,42.44317591908887],[52.50112501125011,42.79184299137526],[51.34191341913419,43.13373982924833],[50.89190891908919,44.030795889014286],[50.33750337503375,44.284679679514085],[50.30510305103053,44.609650931353855],[51.27711277112772,44.514867649567236],[51.31671316713167,45.24605296620669],[52.16632166321665,45.40853859212655],[53.041130411304124,45.25959343503334],[53.22113221132213,46.23450719055256],[53.041130411304124,46.852291080768765],[52.04032040320405,46.80489943987547],[51.190711907119066,47.04862787875527],[50.03510035100351,46.60856264188894],[49.102691026910264,46.398685375075786],[48.64548645486457,45.80628986390957],[47.67707677076771,45.642111679386375],[46.683466834668366,44.609650931353855],[47.59067590675909,43.66012555488459],[47.493474934749344,42.986487230758456],[48.584285842858435,41.80846644283936],[49.10989109891099,41.2820807172031]]],[[[-95.64755647556476,69.10774415598138],[-96.27036270362703,68.75738452509165],[-97.61677616776167,69.06035251508808],[-98.43038430384304,68.95033620587148],[-99.79839798397984,69.40055679435781],[-98.91638916389164,69.71029501876757],[-98.21798217982179,70.14359002122058],[-97.1559715597156,69.85924017586078],[-96.55836558365583,69.6798289639076],[-96.25596255962559,69.49026240033442],[-95.64755647556476,69.10774415598138]]],[[[-180,71.51625504852282],[180,70.83246137277669],[178.9019890198902,70.78168461467672],[178.7255872558726,71.09819307349983],[-180,71.51625504852282]]],[[[-180,71.51625504852282],[-179.87039870398704,71.5568764550028],[-179.02439024390245,71.55518389639946],[-177.5771757717577,71.26914149243635],[-177.66357663576636,71.13204424556645],[-178.69318693186932,70.89339348249663],[-180,70.83246137277669],[-180,71.51625504852282]]],[[[-90.54630546305462,69.49703263474774],[-85.52065520655206,69.88124343770409],[-83.34623346233462,66.41149830087349],[-90.70470704707047,63.61031381235901],[-92.76392763927639,57.845459209410166],[-83.36063360633607,55.245689194692204],[-79.12339123391233,54.14214098531974],[-77.33777337773377,59.85283371296194],[-71.67851678516784,61.52508161305397],[-65.24525245252453,59.87145185759857],[-57.97677976779768,54.94610632190242],[-58.775987759877594,51.065069444462125],[-69.9540995409954,47.74426946472474],[-64.79884798847988,46.99277344484531],[-63.25443254432544,44.6705830410738],[-66.9660696606966,44.80937284654701],[-70.080100801008,41.77969294658271],[-72.87732877328773,41.22114860748316],[-73.96093960939609,40.42733862252044],[-75.05535055350553,38.40473109153869],[-76.32976329763298,38.08314495690561],[-77.3989739897399,34.51184630387506],[-81.49221492214922,30.730670384031356],[-80.37980379803798,25.206159102755663],[-82.65142651426514,28.550654902939726],[-87.52947529475294,30.2736795611317],[-89.77949779497794,29.307228598629123],[-95.60075600756008,28.73852890790957],[-97.14157141571415,25.866256958055146],[-96.5259652596526,19.89152508829315],[-91.40671406714067,18.87598992629394],[-87.05067050670506,21.543462285145196],[-88.09108091080911,18.517167502387565],[-88.23868238682387,17.03617872447205],[-88.11988119881198,15.688902076219762],[-86.00306003060031,16.005410535042856],[-83.77463774637746,15.424862934099977],[-83.55143551435513,13.12636835077511],[-83.65583655836558,10.939582635270142],[-81.43821438214381,8.786648091831822],[-78.05418054180541,9.247024031938139],[-74.90774907749078,11.083450116553365],[-71.13851138511384,12.112525747379223],[-71.26451264512644,9.137007722721549],[-68.88128881288813,11.443965099063078],[-64.31644316443165,10.64169232108371],[-60.15120151201512,8.602159204068641],[-55.949959499594996,5.772201219297514],[-51.31671316713167,4.203199394008735],[-48.584285842858435,-1.2383765157036777],[-39.980199801998026,-2.8733881265224],[-35.127351273512744,-8.99706515337762],[-39.15939159391593,-17.2076669381412],[-43.07623076230763,-22.967443865280032],[-48.659886598865995,-28.185602039352624],[-53.80793807938079,-34.3972921135811],[-57.22437224372243,-35.287577938933744],[-62.1240212402124,-39.424191165477176],[-64.3020430204302,-42.359087783654886],[-67.29367293672937,-45.55125330953906],[-69.13689136891368,-50.732175194338346],[-71.430114301143,-53.856638376089236],[-75.18135181351813,-47.71265064599404],[-73.70173701737016,-43.366160152637434],[-72.55332553325533,-35.50930311597023],[-70.40410404104041,-23.629234279182853],[-76.00936009360093,-14.648518329903197],[-80.53820538205382,-6.541162619942867],[-80.36900369003689,-2.6855141215525435],[-79.54099540995409,0.9822603718679233],[-77.1289712897129,3.8494546459123455],[-78.42858428584286,8.052077657985734],[-80.38340383403833,8.29919121407221],[-81.5210152101521,7.706795702906007],[-83.70983709837098,8.65632107937526],[-84.91224912249122,9.795413019417708],[-85.71145711457115,11.088527792363365],[-87.3170731707317,12.98419342809521],[-90.09630096300963,13.735689447974622],[-95.25155251552515,16.128967313086093],[-101.66681666816667,17.64888493887824],[-105.39645396453965,20.531312240352648],[-107.91647916479164,24.549446364662842],[-111.1781117811178,27.9413338057402],[-114.20574205742057,31.524480368994062],[-113.27333273332734,28.755454493942892],[-110.98730987309872,25.29417215012893],[-110.02970029700296,22.82303658926419],[-113.4641346413464,26.76839069363112],[-114.16254162541625,28.565887930369712],[-117.94257942579426,33.621560478522426],[-121.71541715417155,36.16209094212377],[-124.21384213842138,41.99972556501588],[-123.11943119431194,48.04046722030782],[-127.43587435874358,50.831496357202326],[-131.96831968319682,55.497880426588665],[-140.82440824408243,59.72758437631538],[-149.72729727297272,59.70558111447204],[-152.57852578525785,60.06101842117178],[-158.4321843218432,55.993800097364954],[-163.84663846638466,55.0391970450857],[-157.550175501755,58.32783841135978],[-161.35541355413554,58.67142780783618],[-165.35145351453514,61.0731684659643],[-161.53541535415354,63.45629097945579],[-163.54783547835478,64.55983918882825],[-163.7890378903789,66.07806425601706],[-164.429844298443,68.91479247520152],[-155.0661506615066,71.14727727299643],[-145.69165691656917,70.11989420077393],[-135.6259562595626,69.31592886419122],[-127.44667446674467,70.37716310848037],[-117.60417604176041,69.01126831559145],[-108.88128881288813,67.38133438058273],[-103.2220322203222,68.09728666979217],[-95.4891548915489,68.09051643537885],[-92.87912879128791,71.31822569193298],[-90.54630546305462,69.49703263474774]]],[[[-114.16614166141662,73.12080060448156],[-114.66654666546665,72.6519618713586],[-112.44172441724417,72.95492986135503],[-111.0521105211052,72.4505473975621],[-109.92169921699217,72.96170009576835],[-109.00729007290073,72.63334372672196],[-108.19008190081901,71.65165973678938],[-107.68607686076861,72.06464403600239],[-108.39528395283952,73.09033454962159],[-107.51687516875168,73.23589458950815],[-106.52326523265232,73.07679408079494],[-105.40365403654036,72.6722725745986],[-104.77364773647736,71.69905137768268],[-104.4640446404464,70.99325444009324],[-102.78642786427864,70.49733476931695],[-100.97920979209792,70.02511091898731],[-101.09081090810908,69.585045682121],[-102.73242732427325,69.50380286916106],[-102.09162091620917,69.11959206620469],[-102.430024300243,68.75230684928164],[-104.24084240842409,68.90971479939154],[-105.96165961659617,69.18052417592466],[-107.12087120871209,69.11959206620469],[-109.0000900009,68.77938778693496],[-111.96651966519664,68.60505425079177],[-113.31293312933128,68.53565934805516],[-113.85653856538565,69.00788319838477],[-115.2209522095221,69.28038513352124],[-116.10656106561066,69.16867626570132],[-117.34137341373413,69.96079369206069],[-116.67536675366753,70.06573232546728],[-115.1309513095131,70.23668074440383],[-113.71973719737197,70.19267422071718],[-112.41652416524165,70.36700775686037],[-114.34974349743497,70.6005808441202],[-116.48816488164881,70.5210305897636],[-117.90657906579065,70.5413412930036],[-118.43218432184321,70.90862650992662],[-116.11376113761138,71.30976289891632],[-117.65457654576545,71.29452987148633],[-119.40059400594006,71.55856901360613],[-118.56178561785617,72.30837247488219],[-117.8669786697867,72.70612374666521],[-115.18855188551885,73.31375228526142],[-114.16614166141662,73.12080060448156]]],[[[-104.50004500045,73.42038347727134],[-105.37845378453784,72.76028562197186],[-106.94086940869408,73.45931232514798],[-106.59886598865988,73.59979468922452],[-105.25965259652597,73.6404160957045],[-104.50004500045,73.42038347727134]]],[[[-76.34056340563406,73.10218245984493],[-76.25056250562506,72.82629540750179],[-77.31617316173161,72.85506890375845],[-78.39258392583926,72.87707216560176],[-79.4869948699487,72.7416674773352],[-79.7749977499775,72.80259958705514],[-80.87660876608766,73.33237042989808],[-80.83340833408333,73.69288541240778],[-80.35460354603546,73.75889519793773],[-78.0649806498065,73.65226400592783],[-76.34056340563406,73.10218245984493]]],[[[-86.5610656106561,73.15803689375488],[-85.77265772657726,72.53348276912536],[-84.8510485104851,73.34083322291474],[-82.31662316623166,73.75043240492107],[-80.59940599405994,72.71627909828521],[-80.75060750607506,72.06125891879574],[-78.77058770587705,72.35237899856884],[-77.82377823778238,72.75013027035186],[-75.60615606156061,72.2440552479556],[-74.22734227342274,71.76675372181597],[-74.09774097740977,71.33007360215629],[-72.24372243722436,71.5568764550028],[-71.19971199711996,70.92047442014996],[-68.78768787687876,70.52441570697027],[-67.91647916479164,70.12158675937724],[-66.96966969669697,69.18560185173465],[-68.80568805688057,68.72014823581833],[-66.45126451264512,68.0668206149322],[-64.86364863648636,67.84678799649902],[-63.423634236342366,66.92772867488975],[-61.85041850418504,66.86171888935979],[-62.16362163621636,66.16099962758034],[-63.916839168391675,64.99821186709124],[-65.1480514805148,65.42642919373424],[-66.72126721267212,66.38780248042684],[-68.01368013680137,66.26255314378025],[-68.13968139681397,65.69046833585404],[-67.08847088470884,65.10822817630782],[-65.73125731257312,64.64785223620152],[-65.32085320853209,64.3821205354784],[-64.66924669246693,63.393666311132506],[-65.01485014850148,62.67432890471639],[-66.27486274862748,62.94513828124951],[-68.7840878408784,63.74571850062557],[-67.36927369273693,62.88420617152957],[-66.32886328863289,62.279962750140044],[-66.16686166861668,61.931295677853655],[-68.87768877688777,62.330739508239986],[-71.02331023310232,62.911287109182865],[-72.23652236522365,63.397051428339154],[-71.88731887318873,63.679708715095614],[-73.37773377733777,64.19424653050854],[-74.83574835748357,64.67831829106149],[-74.81774817748177,64.38889076989173],[-77.70857708577086,64.22979026117852],[-78.55458554585546,64.57337965765493],[-77.89577895778957,65.30964265010434],[-76.01656016560165,65.32656823613766],[-73.96093960939609,65.4552026899909],[-74.29214292142922,65.81233255529395],[-73.94653946539465,66.30994478467355],[-72.65052650526505,67.2848585401928],[-72.92772927729277,67.72661633566244],[-73.31293312933128,68.07020573213885],[-74.8429484294843,68.5542774926918],[-76.86976869768698,68.89448177196155],[-76.2289622896229,69.14836556246135],[-77.28737287372873,69.7695345698842],[-78.16938169381693,69.82708156239747],[-78.95778957789578,70.16728584166722],[-79.49419494194942,69.87108808608411],[-81.3050130501305,69.74245363223088],[-84.94464944649447,69.9658713678707],[-87.06147061470614,70.26037656485047],[-88.68148681486815,70.41101428054702],[-89.5130951309513,70.76137391143675],[-88.4690846908469,71.21836473433638],[-89.88749887498875,71.22174985154305],[-90.20430204302043,72.23559245493894],[-89.43749437494374,73.12926339749822],[-88.40788407884078,73.53717002090124],[-85.82665826658267,73.80459428022769],[-86.5610656106561,73.15803689375488]]],[[[-100.35640356403563,73.84352312810435],[-99.16479164791647,73.63364586129117],[-97.37917379173791,73.76058775654107],[-97.119971199712,73.46946767676798],[-98.05238052380524,72.99047359202501],[-96.54036540365404,72.56056370677868],[-96.72036720367204,71.66012252980605],[-98.35838358383583,71.27252660964302],[-99.32319323193232,71.35715453980961],[-100.01440014400144,71.73798022555931],[-102.49842498424984,72.50978694867871],[-102.48042480424805,72.82968052470846],[-100.43920439204392,72.70612374666521],[-101.54081540815407,73.35945136755137],[-100.35640356403563,73.84352312810435]]],[[[143.6036360363604,73.2121987690615],[142.08802088020883,73.20542853464818],[140.03960039600395,73.31713740246809],[139.86319863198634,73.36960671917137],[140.810008100081,73.76566543235106],[142.06282062820628,73.857063596931],[143.48123481234813,73.47454535257796],[143.6036360363604,73.2121987690615]]],[[[-93.1959319593196,72.77213353219517],[-94.26874268742687,72.02402262952242],[-95.409954099541,72.06125891879574],[-96.03276032760327,72.93969683392504],[-96.01836018360183,73.43730906330467],[-95.49635496354963,73.86214127274098],[-94.50274502745027,74.13464320787745],[-92.41832418324184,74.1007920358108],[-90.51030510305102,73.857063596931],[-92.00432004320042,72.96677777157836],[-93.1959319593196,72.77213353219517]]],[[[-120.45900459004591,71.39946850489292],[-123.09063090630906,70.9018562755133],[-123.61983619836198,71.34022895377629],[-125.92745927459274,71.86830723801589],[-125.59265592655926,72.19497104845897],[-124.80784807848079,73.02263220548832],[-123.94023940239401,73.67934494358113],[-124.91944919449195,74.29205115798732],[-121.5390153901539,74.44945910809719],[-120.10980109801098,74.24127439988737],[-117.55737557375573,74.18541996597742],[-116.58536585365854,73.89599244480763],[-115.51255512555126,73.47454535257796],[-116.76896768967688,73.2223541206815],[-119.22059220592206,72.51994230029871],[-120.45900459004591,71.81922303851925],[-120.45900459004591,71.39946850489292]]],[[[150.7317073170732,75.08416858434671],[149.57609576095763,74.688109871167],[147.9776797767978,74.7778154771436],[146.12006120061204,75.17218163171998],[146.3576635766358,75.49715288355972],[148.22248222482227,75.34651516786317],[150.7317073170732,75.08416858434671]]],[[[-93.61353613536136,74.97922995094012],[-94.1571415714157,74.5916340307771],[-95.6079560795608,74.66610660932369],[-96.82116821168212,74.92845319284015],[-96.28836288362884,75.37867378132648],[-94.85194851948519,75.64779059925627],[-93.97713977139772,75.2957384097632],[-93.61353613536136,74.97922995094012]]],[[[145.0868508685087,75.56316266908965],[144.29844298442987,74.82012944222691],[140.61560615606157,74.84721037988021],[138.9559895598956,74.61194473401707],[136.9759697596976,75.26188723769656],[137.51237512375127,75.94906603064936],[138.82998829988298,76.1369400356192],[141.47241472414726,76.09293351193259],[145.0868508685087,75.56316266908965]]],[[[-98.49878498784987,76.71918019516542],[-97.73557735577356,76.25711169645578],[-97.70317703177031,75.7442664396462],[-98.16038160381603,74.9995406541801],[-99.80919809198092,74.89798713798018],[-100.8820088200882,75.05708764669339],[-100.8640086400864,75.64102036484294],[-102.5020250202502,75.56316266908965],[-102.56682566825668,76.33666195081238],[-101.49041490414903,76.30619589595241],[-99.9819998199982,76.64640017522214],[-98.5779857798578,76.58885318270887],[-98.49878498784987,76.71918019516542]]],[[[-108.21168211682117,76.20125726254582],[-107.81927819278192,75.84581995584611],[-106.930069300693,76.01338325757598],[-105.88245882458824,75.96937673388933],[-105.7060570605706,75.4802272975264],[-106.31446314463145,75.00461832999011],[-109.69849698496985,74.85059549708689],[-112.22212222122221,74.41730049463388],[-113.74493744937449,74.39360467418723],[-113.87093870938709,74.72026848463031],[-111.79371793717937,75.16202628009998],[-116.31176311763117,75.04354717786674],[-117.71217712177122,75.22295838981992],[-116.34776347763477,76.19956470394249],[-115.40455404554045,76.47883687349227],[-112.58932589325893,76.14201771142922],[-110.81450814508145,75.549622200263],[-109.06849068490685,75.47345706311307],[-110.49770497704976,76.42975267399567],[-109.57969579695796,76.79365277371204],[-108.550085500855,76.67855878868545],[-108.21168211682117,76.20125726254582]]],[[[57.5339753397534,70.72075250495678],[56.94356943569437,70.63273945758351],[53.678336783367854,70.76306647004009],[53.4119341193412,71.20651682411307],[51.601116011160116,71.47394108343951],[51.45711457114572,72.01555983650576],[52.479524795247954,72.22882222052559],[52.44352443524437,72.77551864940185],[54.42714427144273,73.62687562687785],[53.50913509135091,73.75043240492107],[55.90315903159032,74.62717776144706],[55.63315633156333,75.08078346714004],[57.868778687786886,75.60886175137964],[61.170011700117016,76.2520340206458],[64.50004500045,76.4382154670123],[66.210062100621,76.81057835974536],[68.15768157681578,76.93921281359857],[68.85248852488525,76.54484665902223],[68.17928179281793,76.23341587600913],[64.6368463684637,75.73749620523287],[61.5840158401584,75.26019467909322],[58.47718477184773,74.30897674402064],[56.98676986769868,73.33237042989808],[55.420754207542075,72.3709971432055],[55.622356223562235,71.53995086896947],[57.5339753397534,70.72075250495678]]],[[[-94.68274682746828,77.09831332231178],[-93.5739357393574,76.77672718767872],[-91.60471604716047,76.77841974628205],[-90.74070740707407,76.45006337723564],[-90.97110971109711,76.07431536729592],[-89.82269822698227,75.84751251444945],[-89.18549185491855,75.61055430998294],[-87.83907839078391,75.56654778629633],[-86.37746377463775,75.48191985612974],[-84.78984789847898,75.69856735735621],[-82.75222752227522,75.78488784612617],[-81.12861128611286,75.7138003847862],[-80.05580055800557,75.33635981624317],[-79.83259832598326,74.92337551703017],[-80.4590045900459,74.65764381630703],[-81.94941949419494,74.44268887368386],[-83.22743227432274,74.56455309312378],[-86.09666096660966,74.41053026022055],[-88.14868148681487,74.39191211558392],[-89.7650976509765,74.51546889362714],[-92.42192421924219,74.83705502826024],[-92.76752767527675,75.38713657434315],[-92.88992889928899,75.8830562451194],[-93.89433894338943,76.31973636477906],[-95.96075960759607,76.44160058421897],[-97.119971199712,76.75133880862873],[-96.74556745567456,77.16093799063509],[-94.68274682746828,77.09831332231178]]],[[[-116.20016200162001,77.64500975118804],[-116.3369633696337,76.87658814527529],[-117.10737107371074,76.52961363159224],[-118.03978039780398,76.48052943209561],[-119.9009990099901,76.05400466405595],[-121.49941499414993,75.89998183115273],[-122.85662856628566,76.11662933237923],[-121.15741157411574,76.86474023505198],[-119.10539105391054,77.51299018012813],[-117.57177571775718,77.49775715269814],[-116.20016200162001,77.64500975118804]]],[[[-93.84033840338402,77.51976041454148],[-94.29394293942939,77.49098691828482],[-96.16956169561695,77.55530414521144],[-96.43596435964359,77.83457631476122],[-94.42354423544235,77.81934328733124],[-93.72153721537215,77.63485439956804],[-93.84033840338402,77.51976041454148]]],[[[-110.18810188101881,77.69747906789132],[-112.0529205292053,77.40974410532488],[-113.53253532535325,77.73302279856131],[-112.72612726127261,78.05122381598773],[-111.26451264512644,78.15277733218764],[-109.85329853298532,77.9970619406811],[-110.18810188101881,77.69747906789132]]],[[[24.723247232472346,77.85319445939788],[22.491224912249123,77.44528783599486],[20.727207272072718,77.67716836465135],[21.414814148141488,77.9344372723578],[20.81360813608137,78.25433084838755],[22.88362883628838,78.45574532218407],[23.279632796327974,78.07999731224436],[24.723247232472346,77.85319445939788]]],[[[-109.66249662496625,78.60130536207063],[-110.8829088290883,78.40666112268744],[-112.54252542525425,78.40835368129078],[-112.52452524525245,78.55052860397066],[-111.49851498514985,78.85011147676042],[-110.9621096210962,78.80441239447046],[-109.66249662496625,78.60130536207063]]],[[[-95.83115831158311,78.05630149179771],[-97.31077310773108,77.84980934219121],[-98.12438124381244,78.08338242945104],[-98.55278552785528,78.45743788078741],[-98.6319863198632,78.87211473860376],[-97.3359733597336,78.83149333212378],[-96.75276752767527,78.76548354659383],[-95.55755557555575,78.41850903291078],[-95.83115831158311,78.05630149179771]]],[[[-100.06120061200612,78.3254183097275],[-99.67239672396724,77.9073563347045],[-101.30321303213032,78.01906520252442],[-102.94842948429483,78.34403645436416],[-105.17685176851768,78.37958018503411],[-104.2120421204212,78.67747049922056],[-105.4180541805418,78.91781382089371],[-105.49365493654936,79.30202462385009],[-103.5280352803528,79.16492737698019],[-100.82440824408243,78.80102727726378],[-100.06120061200612,78.3254183097275]]],[[[105.0760507605076,78.30680016509086],[99.43839438394383,77.92089680353115],[101.26361263612637,79.23432227971679],[102.08802088020883,79.3460311475367],[102.8368283682837,79.28171392061009],[105.37125371253711,78.71301422989055],[105.0760507605076,78.30680016509086]]],[[[18.25038250382505,79.70146845423642],[21.544415444154453,78.95674266877035],[19.02799027990281,78.56237651419397],[18.469984699847004,77.82611352174456],[17.59517595175953,77.63823951677472],[17.119971199712012,76.80888580114203],[15.913959139591412,76.76995695326539],[13.761137611376114,77.38097060906824],[14.668346683466837,77.73640791576796],[13.170731707317088,78.0241428783344],[11.223112231122315,78.86872962139708],[10.445504455044556,79.65238425473979],[13.170731707317088,80.01120667864618],[13.717937179371802,79.66084704775645],[15.143551435514354,79.67438751658312],[15.521555215552155,80.01628435445619],[16.990369903699047,80.05013552652284],[18.25038250382505,79.70146845423642]]],[[[25.4468544685447,80.40726539182589],[27.4088740887409,80.05690576093616],[25.92565925659258,79.51867212507656],[23.02403024030241,79.40019302284333],[20.07560075600756,79.56606376596986],[19.895598955989556,79.841950818313],[18.462784627846275,79.86056896294963],[17.36837368373685,80.31925234445262],[20.457204572045725,80.5985245140024],[21.908019080190797,80.35818119232925],[22.919629196291964,80.65776406511901],[25.4468544685447,80.40726539182589]]],[[[51.13671136711369,80.54774775590244],[49.7938979389794,80.41572818484255],[48.893888938889404,80.3395630476926],[48.75348753487535,80.1753848631694],[47.587075870758724,80.00951412004287],[46.50346503465036,80.24647232450934],[47.07227072270723,80.55959566612574],[44.847448474484764,80.59006172098574],[46.798667986679874,80.77116549154226],[48.317883178831806,80.78470596036891],[48.5230852308523,80.51389658383579],[49.095490954909565,80.75423990550894],[50.03870038700387,80.91841809003213],[51.52191521915219,80.70007803020232],[51.13671136711369,80.54774775590244]]],[[[99.93879938799387,78.88057753162039],[97.75717757177574,78.75702075357717],[94.97434974349744,79.04475571614361],[93.31113311133112,79.42727396049665],[92.54432544325442,80.14322624970609],[91.17991179911797,80.34125560629593],[93.77913779137793,81.02504928204206],[95.93915939159393,81.25015957628523],[97.88317883178831,80.74746967109562],[100.1872018720187,79.77932614998971],[99.93879938799387,78.88057753162039]]],[[[-87.01827018270183,79.65915448915314],[-85.81585815858158,79.33756835452004],[-87.18747187471874,79.0396780403336],[-89.03429034290343,78.28648946185086],[-90.80550805508055,78.21540200051092],[-92.87552875528755,78.34403645436416],[-93.9519395193952,78.75025051916384],[-93.93753937539375,79.11415061888022],[-93.14553145531455,79.37988231960335],[-94.97434974349743,79.37311208519003],[-96.0759607596076,79.7048535714431],[-96.70956709567095,80.15845927713607],[-96.01476014760148,80.60190963120905],[-95.32355323553236,80.90657017980882],[-94.29754297542975,80.97765764114877],[-94.73674736747367,81.20615305259858],[-92.41112411124111,81.25692981069855],[-91.13311133111331,80.72377385064897],[-89.44829448294483,80.5088189080258],[-87.81027810278103,80.31925234445262],[-87.01827018270183,79.65915448915314]]],[[[-68.49968499684996,83.10689636414043],[-65.82845828458284,83.02734610978382],[-63.67923679236792,82.90040421453392],[-61.85041850418504,82.62790227939749],[-61.893618936189355,82.36217057867435],[-64.33444334443344,81.92718301761803],[-66.75366753667537,81.72576854382152],[-67.65727657276572,81.50065824957835],[-65.47925479254792,81.50573592538836],[-67.84087840878408,80.8997999453955],[-69.4680946809468,80.61714265863904],[-71.18171181711817,79.79963685322969],[-73.24453244532445,79.63376611010315],[-73.88173881738817,79.4306590777033],[-76.90936909369093,79.32233532709006],[-75.53055530555305,79.1970859904435],[-76.22176221762217,79.01936733709363],[-75.39375393753937,78.52514022492068],[-76.34416344163441,78.18324338704761],[-77.88857888578886,77.90058610029118],[-78.36378363783638,77.50791250431814],[-79.76059760597606,77.2100221901317],[-79.62019620196202,76.98321933728522],[-77.91017910179102,77.02214818516185],[-77.88857888578886,76.77841974628205],[-80.55980559805597,76.17756144209918],[-83.17343173431733,76.45344849444231],[-86.1110611106111,76.29942566153909],[-87.60147601476014,76.41959732237567],[-89.49149491494914,76.47206663907895],[-89.61749617496174,76.95275328242525],[-87.7670776707767,77.17786357666839],[-88.26028260282602,77.90058610029118],[-87.64827648276483,77.96998100302778],[-84.9770497704977,77.53837855917811],[-86.34146341463415,78.17985826984096],[-87.96147961479615,78.37111739201748],[-87.15147151471514,78.7587133121805],[-85.38025380253802,78.99736407525032],[-85.09585095850959,79.3460311475367],[-86.5070650706507,79.7370121849064],[-86.93186931869319,80.25155000031933],[-84.19944199441994,80.20754347663271],[-83.40743407434074,80.09921972601944],[-81.84861848618486,80.46481238433915],[-84.09864098640986,80.57990636936574],[-87.59787597875979,80.51558914243913],[-89.36549365493654,80.85579342170885],[-90.20070200702007,81.2603149279052],[-91.3671136711367,81.55312756628166],[-91.58671586715867,81.89502440415473],[-90.09990099900999,82.0845909677279],[-88.93348933489335,82.11674958119121],[-86.97146971469715,82.27923520711107],[-85.49905499054991,82.65159809984414],[-84.26064260642606,82.60082134174417],[-83.18063180631806,82.31985661359104],[-82.4210242102421,82.85978280805395],[-81.09981099810997,83.0205758753705],[-79.3069930699307,83.13059218458707],[-76.25056250562506,83.17121359106704],[-75.71775717757177,83.06458239905714],[-72.83052830528305,83.23383825939032],[-70.66690666906669,83.1695210324637],[-68.49968499684996,83.10689636414043]]],[[[-27.099270992709933,83.51988066335343],[-22.692826928269284,82.34185987543435],[-31.901719017190175,82.19968495275447],[-27.855278552785535,82.1319826086212],[-22.901629016290144,82.09305376074457],[-23.1680316803168,81.15199117729196],[-15.769957699576992,81.91194999018805],[-12.209522095220933,81.2907809827652],[-16.84996849968499,80.3497183993126],[-17.731977319773193,80.12968578087944],[-19.704797047970487,78.75194307776718],[-18.47358473584734,76.98491189588856],[-21.681216812168117,76.62778203058551],[-19.600396003960043,75.24834676886991],[-19.373593735937362,74.29543627519399],[-20.43560435604354,73.81644219045103],[-22.17082170821709,73.31036716805477],[-22.314823148231483,72.62995860951528],[-24.276842768427684,72.59779999605198],[-23.441634416344158,72.07987706343238],[-21.753217532175313,70.66320551244348],[-24.30564305643057,70.85615719322334],[-25.2020520205202,70.75291111842009],[-23.726037260372607,70.18421142770052],[-25.029250292502923,69.25838187167793],[-30.67410674106742,68.12436760744546],[-32.81252812528126,67.7350791286791],[-36.351363513635135,65.97820329842048],[-38.37458374583744,65.69216089445737],[-40.66780667806677,64.84080391698137],[-41.18981189811899,63.48167935850577],[-42.417424174241745,61.900829622993655],[-43.37863378633787,60.098254710445076],[-46.262262622626224,60.85313584753115],[-49.23229232292323,61.40660251082073],[-51.633516335163335,63.627239398392305],[-52.277922779227794,65.17593052044111],[-53.300333003330024,66.8363305103098],[-52.97992979929799,68.35794069470529],[-51.079110791107894,69.14836556246135],[-52.0151201512015,69.574890330501],[-53.45513455134551,69.28377025072791],[-54.75114751147511,70.28915006110711],[-53.42993429934299,70.83584648998337],[-53.10953109531094,71.20482426550973],[-54.99954999549995,71.40623873930625],[-54.71874718747188,72.58595208582867],[-56.11916119161191,73.6505714473245],[-58.59598595985959,75.0994016117767],[-61.26721267212672,76.10308886355259],[-66.0660606606066,76.1352474770159],[-69.6660966609666,76.3789759158957],[-68.77688776887769,77.32342361655495],[-71.04131041310413,77.63654695817138],[-73.15813158131581,78.43204950173742],[-65.70965709657096,79.39511534703334],[-68.02448024480245,80.1178378706561],[-63.690036900368995,81.21461584561524],[-62.64962649626496,81.76977506750814],[-57.206372063720636,82.1912221597378],[-53.044730447304474,81.88825416974137],[-48.00468004680047,82.0642802644879],[-44.52344523445234,81.6614513168949],[-46.76266762667626,82.62790227939749],[-39.89739897398974,83.1796763840837],[-35.08775087750877,83.64513000000002],[-27.099270992709933,83.51988066335343]]]]}}]}